City	State	Zip	Address	Second	Last	First	Phone	Email	Website
Toledo	Ohio	43610	6136 Rowland Hill	9142	Lewis	Denise	1-(419)397-7277	dlewis0@elegantthemes.com	https://archive.org
Phoenix	Arizona	85005	908 Miller Alley	7669	Sims	Angela	1-(480)118-3756	asims1@wufoo.com	https://app.assembla.com/spaces/cis422s14_team5/wiki/Home
Boston	Massachusetts	02124	0 Heffernan Trail	1451	Allen	Robin	1-(617)300-5279	rallen2@flavors.me	http://mysql.com
Manchester	New Hampshire	03105	245 Florence Crossing	81742	Carroll	Bruce	1-(603)512-3398	bcarroll3@pinterest.com	http://alexa.com
Wilmington	North Carolina	28405	7123 Northport Park	4205	Gray	Steven	1-(910)801-3813	sgray4@exblog.jp	http://weebly.com
Corpus Christi	Texas	78470	67 Briar Crest Parkway	59	Campbell	Nicole	1-(361)108-8282	ncampbell5@drupal.org	https://hc360.com
Springfield	Illinois	62756	48259 Utah Center	855	Lopez	Peter	1-(217)169-9734	plopez6@ft.com	http://networksolutions.com
Augusta	Georgia	30919	1096 Mandrake Drive	78	Diaz	Michael	1-(706)965-8952	mdiaz7@shinystat.com	https://vk.com
San Diego	California	92105	085 Macpherson Point	79	Murray	Debra	1-(858)314-4749	dmurray8@oracle.com	http://sohu.com
Richmond	Virginia	23220	04829 Nelson Lane	3303	Phillips	Irene	1-(804)680-7590	iphillips9@i2i.jp	http://skype.com
Dallas	Texas	75236	41368 Cottonwood Junction	44	Parker	Stephen	1-(469)343-6681	sparkera@cbsnews.com	http://cpanel.net
Orlando	Florida	32835	42 Tennessee Place	07	West	Billy	1-(321)965-8719	bwestb@typepad.com	https://cnn.com
Indianapolis	Indiana	46266	15101 Northland Crossing	28	Gibson	Amanda	1-(317)353-6043	agibsonc@bigcartel.com	http://wikipedia.org
Frankfort	Kentucky	40618	04812 Kennedy Avenue	8815	Burton	John	1-(502)623-1872	jburtond@furl.net	https://statcounter.com
Pueblo	Colorado	81010	8 Monica Street	66	Weaver	Rebecca	1-(719)499-6353	rweavere@gizmodo.com	http://redcross.org
Tampa	Florida	33680	1 Service Plaza	130	Oliver	Cynthia	1-(813)395-5013	coliverf@ibm.com	http://pen.io
Aurora	Colorado	80045	4588 Northland Center	61	Thompson	Russell	1-(303)686-6928	rthompsong@soup.io	http://scientificamerican.com
Garden Grove	California	92844	167 Northfield Way	56178	Ward	Rachel	1-(714)993-4344	rwardh@goo.gl	https://spotify.com
Evansville	Indiana	47737	0 Division Plaza	95481	Simmons	Ann	1-(812)379-1116	asimmonsi@shinystat.com	http://comcast.net
Denver	Colorado	80209	2 Dayton Circle	17	Mitchell	Sharon	1-(720)301-9853	smitchellj@ft.com	https://engadget.com
Washington	District of Columbia	20397	3450 Old Gate Court	042	Turner	Lawrence	1-(202)415-8215	lturnerk@statcounter.com	http://icq.com
Melbourne	Florida	32941	096 Lotheville Junction	892	Morgan	Craig	1-(321)973-8577	cmorganl@who.int	http://so-net.ne.jp
Washington	District of Columbia	20525	74 Fairview Hill	13081	Robertson	Roger	1-(202)142-8241	rrobertsonm@elpais.com	http://army.mil
Greensboro	North Carolina	27409	52 Farragut Junction	7	Howell	Nancy	1-(336)303-0191	nhowelln@ed.gov	http://etsy.com
Tucson	Arizona	85743	9 Meadow Ridge Alley	9745	Armstrong	Russell	1-(520)556-8208	rarmstrongo@abc.net.au	http://tiny.cc
Hampton	Virginia	23663	75862 Brown Center	2	Banks	Kenneth	1-(804)135-1188	kbanksp@accuweather.com	https://chicagotribune.com
Spring	Texas	77386	019 Village Green Place	75060	Reyes	Steven	1-(281)763-6357	sreyesq@xinhuanet.com	https://blogtalkradio.com
Syracuse	New York	13217	257 Aberg Hill	862	Taylor	Sara	1-(315)148-8630	staylorr@ihg.com	https://techcrunch.com
Springfield	Missouri	65810	360 Cottonwood Circle	34214	Chavez	Ruby	1-(417)775-4986	rchavezs@issuu.com	https://wordpress.com
Dallas	Texas	75372	9 Kensington Park	28	Ruiz	Larry	1-(214)768-5313	lruizt@answers.com	http://amazon.com
Atlanta	Georgia	30336	1 Pierstorff Place	9769	Ruiz	Victor	1-(404)734-6085	vruizu@harvard.edu	https://thetimes.co.uk
Johnson City	Tennessee	37605	72894 Kropf Avenue	32253	Black	Janice	1-(423)970-4956	jblackv@spotify.com	https://github.com
Colorado Springs	Colorado	80920	19 Hintze Pass	6	Jackson	Timothy	1-(719)152-5879	tjacksonw@hugedomains.com	https://usnews.com
Las Vegas	Nevada	89166	414 Hintze Court	08199	Meyer	Anthony	1-(702)397-1773	ameyerx@cnn.com	https://edublogs.org
Green Bay	Wisconsin	54313	3 Tomscot Alley	193	Rose	Nicholas	1-(920)510-3011	nrosey@twitter.com	https://dmoz.org
Carlsbad	California	92013	09 Birchwood Place	93070	Martinez	Janet	1-(760)634-8217	jmartinezz@gizmodo.com	http://nydailynews.com
Ogden	Utah	84403	112 Menomonie Park	7	Edwards	Jessica	1-(801)216-7146	jedwards10@indiatimes.com	https://usgs.gov
Sacramento	California	94207	5635 Spohn Junction	3	Black	Jonathan	1-(916)347-6548	jblack11@histats.com	https://wikipedia.org
Fargo	North Dakota	58122	2326 7th Pass	7571	Knight	Jack	1-(701)922-1395	jknight12@army.mil	https://fotki.com
New York City	New York	10260	757 Blackbird Circle	16	Franklin	Louise	1-(212)814-1202	lfranklin13@ebay.co.uk	http://flickr.com
Minneapolis	Minnesota	55423	5276 Fremont Point	265	Garza	Jerry	1-(763)734-6694	jgarza14@csmonitor.com	https://webeden.co.uk
El Paso	Texas	79934	15739 Lindbergh Lane	2	Phillips	Betty	1-(915)198-9296	bphillips15@jalbum.net	http://parallels.com
Akron	Ohio	44305	27 Northwestern Place	50	Richards	Amanda	1-(330)797-2807	arichards16@slideshare.net	http://deliciousdays.com
Sioux City	Iowa	51110	0233 Straubel Parkway	22767	Perez	Benjamin	1-(712)716-9013	bperez17@wisc.edu	http://lycos.com
Manchester	New Hampshire	03105	29577 Lukken Crossing	499	Fields	Mary	1-(603)740-4068	mfields18@nature.com	http://skyrock.com
Honolulu	Hawaii	96840	345 Sutherland Place	46	Bryant	Martin	1-(808)872-9184	mbryant19@mac.com	http://dedecms.com
Oklahoma City	Oklahoma	73114	740 Roth Crossing	885	Bishop	Wayne	1-(405)258-6127	wbishop1a@tiny.cc	http://privacy.gov.au
New Orleans	Louisiana	70116	35 Pierstorff Street	78166	Grant	Lisa	1-(504)753-2588	lgrant1b@eventbrite.com	http://dailymotion.com
Buffalo	New York	14215	1 Charing Cross Court	57263	Ruiz	Albert	1-(716)655-4967	aruiz1c@networkadvertising.org	https://hostgator.com
Richmond	California	94807	011 Dakota Parkway	816	Black	Julie	1-(510)145-2355	jblack1d@usda.gov	http://sun.com
Washington	District of Columbia	20210	590 Sauthoff Court	594	Collins	Julia	1-(202)988-5076	jcollins1e@amazonaws.com	http://dyndns.org
Jefferson City	Missouri	65110	60103 Graceland Hill	88782	Bennett	Elizabeth	1-(573)919-0112	ebennett1f@smugmug.com	https://issuu.com
Washington	District of Columbia	20580	61091 Summerview Center	513	Wilson	Irene	1-(202)763-0592	iwilson1g@soup.io	http://apple.com
San Mateo	California	94405	0080 Vernon Point	54971	Long	Denise	1-(805)940-0932	dlong1h@businessweek.com	https://mayoclinic.com
Carol Stream	Illinois	60158	84095 Rieder Way	2747	Marshall	Marie	1-(309)827-6390	mmarshall1i@delicious.com	http://sun.com
Birmingham	Alabama	35236	453 Dawn Drive	19	Castillo	Rebecca	1-(205)438-2279	rcastillo1j@whitehouse.gov	https://blogtalkradio.com
Tampa	Florida	33647	7 Washington Avenue	7740	Mitchell	Christine	1-(813)532-1863	cmitchell1k@seattletimes.com	http://youtu.be
Greeley	Colorado	80638	9 Bowman Junction	15120	Hernandez	Sarah	1-(970)503-6287	shernandez1l@dailymail.co.uk	https://dyndns.org
Fort Lauderdale	Florida	33330	28353 Wayridge Street	13935	Wright	Russell	1-(954)513-1267	rwright1m@reuters.com	http://psu.edu
Miami	Florida	33185	4659 5th Crossing	9	Harrison	Paul	1-(305)246-8707	pharrison1n@tamu.edu	https://123-reg.co.uk
Greensboro	North Carolina	27499	493 Service Avenue	3	Wilson	Howard	1-(336)532-9740	hwilson1o@soundcloud.com	https://senate.gov
Baton Rouge	Louisiana	70836	01 Darwin Place	7	Cole	Kelly	1-(225)287-5190	kcole1p@live.com	https://foxnews.com
El Paso	Texas	79945	5 Stang Junction	6	Jenkins	Stephanie	1-(915)530-9662	sjenkins1q@walmart.com	http://usda.gov
Indianapolis	Indiana	46239	52 Cordelia Terrace	3947	Jones	Harry	1-(317)409-7475	hjones1r@trellian.com	http://unesco.org
Fort Wayne	Indiana	46825	40 Forest Dale Park	2933	Williams	Gloria	1-(260)632-1739	gwilliams1s@macromedia.com	http://addthis.com
Denver	Colorado	80291	20707 Weeping Birch Crossing	0100	Johnson	Joe	1-(303)644-8143	jjohnson1t@taobao.com	http://squarespace.com
Lake Charles	Louisiana	70616	2987 Lyons Circle	314	Dixon	Albert	1-(337)145-3321	adixon1u@squidoo.com	http://oracle.com
Akron	Ohio	44321	79 Hayes Crossing	94892	King	Theresa	1-(330)509-0825	tking1v@baidu.com	http://desdev.cn
Tallahassee	Florida	32304	043 Daystar Alley	05189	Hayes	Joseph	1-(850)535-4972	jhayes1w@php.net	http://lulu.com
Charlotte	North Carolina	28242	7 Onsgard Alley	408	Bennett	Eric	1-(704)586-7884	ebennett1x@soundcloud.com	https://arizona.edu
Pompano Beach	Florida	33075	72549 Mosinee Trail	84	Johnston	Patricia	1-(754)700-6506	pjohnston1y@wikimedia.org	http://etsy.com
Chicago	Illinois	60619	30 Butterfield Alley	7	Daniels	Tina	1-(773)211-7434	tdaniels1z@dedecms.com	https://bandcamp.com
Madison	Wisconsin	53710	55 Dapin Crossing	5	Hart	Kimberly	1-(608)593-2299	khart20@nasa.gov	http://adobe.com
Miami	Florida	33164	264 Myrtle Parkway	4	Reyes	Annie	1-(786)801-9690	areyes21@huffingtonpost.com	http://cnbc.com
Austin	Texas	78754	6781 Clove Crossing	3	Richardson	Catherine	1-(512)834-9467	crichardson22@pen.io	http://ocn.ne.jp
Mobile	Alabama	36628	06384 Dovetail Lane	762	Harrison	Adam	1-(251)201-0890	aharrison23@ifeng.com	http://toplist.cz
Saint Petersburg	Florida	33715	90094 Hansons Avenue	70232	Thomas	Brian	1-(727)456-2538	bthomas24@fema.gov	http://mapquest.com
Fresno	California	93726	8784 Forest Run Pass	8	Dixon	Karen	1-(559)102-8072	kdixon25@theatlantic.com	http://amazon.co.jp
Tampa	Florida	33673	89251 Carberry Road	55	Black	Virginia	1-(813)282-1992	vblack26@google.com.br	https://arizona.edu
Duluth	Minnesota	55805	328 Mcbride Plaza	9	Stevens	Lawrence	1-(218)990-0291	lstevens27@bravesites.com	http://123-reg.co.uk
Whittier	California	90610	0732 Kensington Junction	457	Fowler	Catherine	1-(562)865-8952	cfowler28@tmall.com	http://mozilla.org
Tampa	Florida	33680	0221 Oneill Lane	2237	Cruz	Clarence	1-(813)109-0316	ccruz29@bloglines.com	http://businessweek.com
Lexington	Kentucky	40510	8596 Garrison Pass	7145	Bell	Jack	1-(859)210-9159	jbell2a@ow.ly	https://soup.io
Omaha	Nebraska	68164	5353 Troy Park	51	Patterson	Lori	1-(402)718-1984	lpatterson2b@yellowpages.com	https://aol.com
Salt Lake City	Utah	84110	6 Tennessee Circle	903	Grant	Harry	1-(801)284-6077	hgrant2c@discuz.net	http://mayoclinic.com
Albany	New York	12247	40 Pearson Junction	507	Johnston	Charles	1-(518)482-5266	cjohnston2d@4shared.com	http://mozilla.org
Morgantown	West Virginia	26505	1 Sauthoff Point	8455	Washington	Beverly	1-(304)247-7855	bwashington2e@howstuffworks.com	http://ibm.com
Jacksonville	Florida	32220	4789 Eagle Crest Crossing	362	Griffin	Carlos	1-(904)582-5475	cgriffin2f@google.fr	http://rambler.ru
San Francisco	California	94147	1101 Saint Paul Parkway	76	Kelly	Billy	1-(415)223-1013	bkelly2g@about.com	https://posterous.com
Staten Island	New York	10310	17 Spaight Trail	6	Richardson	Michelle	1-(914)227-6792	mrichardson2h@t.co	http://a8.net
Gilbert	Arizona	85297	70 Kingsford Terrace	75	Lopez	Arthur	1-(480)160-1183	alopez2i@google.co.uk	https://ucla.edu
Houston	Texas	77010	792 Brickson Park Center	81	Frazier	Alan	1-(713)454-6503	afrazier2j@freewebs.com	https://hatena.ne.jp
Nashville	Tennessee	37235	60213 Chive Place	90	Long	Anne	1-(615)759-0373	along2k@sina.com.cn	http://google.com.br
Greensboro	North Carolina	27455	665 Pankratz Point	550	Wright	Mildred	1-(336)503-9471	mwright2l@paginegialle.it	http://google.co.jp
Fort Lauderdale	Florida	33315	79267 Old Shore Parkway	0465	Austin	Joan	1-(954)327-6090	jaustin2m@squarespace.com	https://php.net
Corpus Christi	Texas	78465	7 Pankratz Park	31731	Lopez	Helen	1-(361)691-3129	hlopez2n@nbcnews.com	https://prweb.com
Richmond	Virginia	23208	49003 Melvin Circle	60748	Stewart	Jerry	1-(804)982-7012	jstewart2o@nsw.gov.au	http://google.co.uk
Seattle	Washington	98185	75 Hooker Court	3	Cooper	Alice	1-(206)974-0545	acooper2p@so-net.ne.jp	https://purevolume.com
Springfield	Illinois	62711	2386 Reinke Lane	6745	Andrews	Louise	1-(217)975-3483	landrews2q@wired.com	http://smh.com.au
Duluth	Georgia	30096	3778 3rd Road	1377	Hill	Eugene	1-(678)409-7869	ehill2r@nhs.uk	https://cpanel.net
Sacramento	California	95894	41 Bellgrove Pass	05	Andrews	Earl	1-(916)739-3929	eandrews2s@squidoo.com	http://dot.gov
Syracuse	New York	13251	55 Gulseth Avenue	5	Evans	Jessica	1-(315)194-9155	jevans2t@prlog.org	https://ft.com
Alexandria	Virginia	22333	8 Village Pass	7802	Fox	Rose	1-(571)561-3406	rfox2u@google.com.hk	http://naver.com
Memphis	Tennessee	38168	17 Butternut Point	50466	Willis	Diane	1-(901)961-0930	dwillis2v@unesco.org	http://deliciousdays.com
Baltimore	Maryland	21239	32338 Vermont Center	9614	Morris	Juan	1-(443)151-0755	jmorris2w@weibo.com	http://state.tx.us
Newark	Delaware	19725	63 Service Parkway	33535	Lopez	Samuel	1-(302)826-5785	slopez2x@vk.com	https://bluehost.com
Sacramento	California	95823	170 Morning Trail	34	Butler	Gloria	1-(510)706-8194	gbutler2y@webnode.com	https://hexun.com
Santa Fe	New Mexico	87592	00 Elmside Avenue	042	Perkins	Christopher	1-(505)463-6645	cperkins2z@ox.ac.uk	https://salon.com
Houston	Texas	77050	42 Scott Plaza	62452	White	Denise	1-(281)216-3161	dwhite30@mozilla.org	https://nymag.com
Huntington Beach	California	92648	9500 Forest Center	2	Hart	Jason	1-(714)190-1936	jhart31@google.com.au	https://cdc.gov
San Antonio	Texas	78260	38 Lakewood Gardens Alley	6	Snyder	Stephen	1-(210)829-8404	ssnyder32@exblog.jp	https://eepurl.com
New York City	New York	10105	0 Grover Alley	5	Graham	Debra	1-(212)835-9916	dgraham33@chicagotribune.com	https://answers.com
Orlando	Florida	32819	12926 Petterle Park	45153	Bell	Betty	1-(321)732-3968	bbell34@thetimes.co.uk	http://aboutads.info
Columbus	Georgia	31998	451 Mockingbird Avenue	4715	Flores	Marilyn	1-(706)108-9069	mflores35@blogs.com	http://google.ru
Phoenix	Arizona	85072	4 American Ash Lane	483	Frazier	Lori	1-(602)715-4894	lfrazier36@360.cn	http://sogou.com
Tucson	Arizona	85748	968 Carpenter Park	838	Carpenter	Amanda	1-(520)868-5875	acarpenter37@livejournal.com	https://amazon.co.uk
Louisville	Kentucky	40205	77177 Bartelt Terrace	18	Schmidt	Stephanie	1-(502)775-7701	sschmidt38@gmpg.org	http://yolasite.com
Long Beach	California	90840	705 Shopko Terrace	706	Kelley	Adam	1-(562)799-2030	akelley39@lycos.com	http://cocolog-nifty.com
Washington	District of Columbia	20073	0 Gina Point	39	Crawford	Victor	1-(202)587-5109	vcrawford3a@google.cn	https://europa.eu
Richmond	Virginia	23272	99016 Dapin Terrace	101	Long	Anne	1-(804)704-8946	along3b@census.gov	https://g.co
Newark	New Jersey	07104	02140 Kipling Trail	99	Stephens	Lillian	1-(973)914-6557	lstephens3c@scientificamerican.com	http://spotify.com
Spring Hill	Florida	34611	2558 American Ash Point	0	Howell	Stephen	1-(352)709-6190	showell3d@ebay.com	http://rakuten.co.jp
Atlanta	Georgia	30340	04987 Nelson Trail	375	Powell	Frances	1-(404)784-9471	fpowell3e@cisco.com	https://adobe.com
Washington	District of Columbia	20442	7669 Birchwood Junction	2	Hicks	Julie	1-(202)320-0602	jhicks3f@webnode.com	http://desdev.cn
Waterbury	Connecticut	06721	57 Vermont Pass	9601	Owens	Craig	1-(203)192-9233	cowens3g@wordpress.org	https://deviantart.com
Fredericksburg	Virginia	22405	411 Myrtle Pass	3	Hicks	Kimberly	1-(540)571-0264	khicks3h@utexas.edu	http://mysql.com
Houston	Texas	77255	271 Clemons Center	1	George	Julia	1-(713)957-4018	jgeorge3i@illinois.edu	https://flavors.me
San Francisco	California	94110	7 Little Fleur Point	0534	Lee	Gloria	1-(415)893-8874	glee3j@npr.org	https://myspace.com
San Bernardino	California	92415	3620 Talmadge Point	4827	Hernandez	Jacqueline	1-(909)670-3341	jhernandez3k@npr.org	http://samsung.com
Austin	Texas	78732	78 Northridge Avenue	246	Taylor	Juan	1-(512)459-8246	jtaylor3l@skyrock.com	https://soundcloud.com
El Paso	Texas	88525	44928 Eastwood Hill	98	Perkins	Annie	1-(915)906-3284	aperkins3m@storify.com	https://wikia.com
Washington	District of Columbia	20404	3942 Daystar Crossing	2429	Ortiz	Norma	1-(202)767-8090	nortiz3n@yale.edu	https://netlog.com
Sacramento	California	94286	9275 Badeau Parkway	110	Daniels	Martha	1-(916)920-4384	mdaniels3o@studiopress.com	https://seesaa.net
Kansas City	Missouri	64179	2 La Follette Alley	53	Hamilton	Scott	1-(816)534-2966	shamilton3p@arstechnica.com	https://stumbleupon.com
Des Moines	Iowa	50310	94 Sycamore Trail	7669	Reyes	David	1-(515)780-5800	dreyes3q@wix.com	http://bbb.org
Knoxville	Tennessee	37939	9006 Garrison Street	4	Hernandez	Benjamin	1-(865)931-2528	bhernandez3r@yahoo.com	http://spiegel.de
Peoria	Illinois	61651	7600 Dawn Parkway	1	Simmons	Howard	1-(309)886-0279	hsimmons3s@hibu.com	http://ezinearticles.com
Indianapolis	Indiana	46231	25800 Harbort Avenue	35021	Brown	Jimmy	1-(317)287-6659	jbrown3t@ifeng.com	https://yandex.ru
Lancaster	Pennsylvania	17605	370 Troy Plaza	58	Turner	Denise	1-(717)911-5323	dturner3u@mozilla.org	https://npr.org
Arlington	Virginia	22234	93 Novick Alley	0308	Hanson	Todd	1-(571)295-6617	thanson3v@theatlantic.com	https://livejournal.com
Austin	Texas	78721	895 Northwestern Lane	9	Hayes	Maria	1-(512)691-5847	mhayes3w@discuz.net	http://java.com
Peoria	Illinois	61656	38 Melrose Avenue	0	Harvey	Bonnie	1-(309)893-0108	bharvey3x@npr.org	http://rakuten.co.jp
New York City	New York	10184	06554 Pine View Street	082	Andrews	Susan	1-(212)403-7971	sandrews3y@economist.com	http://gravatar.com
Washington	District of Columbia	20073	93 New Castle Circle	50	Morrison	Phyllis	1-(202)223-9734	pmorrison3z@opensource.org	https://theglobeandmail.com
Colorado Springs	Colorado	80920	19 Prairieview Street	26470	Crawford	Harold	1-(719)499-8316	hcrawford40@mysql.com	http://jalbum.net
Grand Rapids	Michigan	49505	1 Nova Street	50538	Reed	Angela	1-(616)526-2516	areed41@telegraph.co.uk	https://vistaprint.com
Northridge	California	91328	40112 David Alley	717	Peters	Phyllis	1-(818)250-2879	ppeters42@4shared.com	http://desdev.cn
Whittier	California	90610	769 Commercial Avenue	64705	Young	Julie	1-(562)818-2517	jyoung43@army.mil	https://chicagotribune.com
Denver	Colorado	80204	2 Blue Bill Park Circle	57	Turner	Matthew	1-(303)387-8097	mturner44@telegraph.co.uk	https://sina.com.cn
Washington	District of Columbia	20414	0385 Northwestern Place	8	Hall	Willie	1-(202)844-3750	whall45@diigo.com	http://simplemachines.org
Spokane	Washington	99215	77 Pankratz Hill	0660	Welch	Shirley	1-(509)776-2800	swelch46@examiner.com	http://slashdot.org
Canton	Ohio	44710	5 Clemons Plaza	45	Peters	Larry	1-(330)374-5051	lpeters47@w3.org	https://nytimes.com
San Jose	California	95128	1 Ridgeway Lane	43527	Adams	Craig	1-(714)793-4187	cadams48@csmonitor.com	http://umich.edu
Charlotte	North Carolina	28256	427 Utah Park	09	Green	Janice	1-(704)544-0632	jgreen49@ifeng.com	https://phpbb.com
Washington	District of Columbia	20022	26454 Mcbride Court	9385	Walker	Gregory	1-(202)415-3906	gwalker4a@tripod.com	http://merriam-webster.com
Atlanta	Georgia	30301	08 Novick Park	7	Cunningham	Martin	1-(404)264-4988	mcunningham4b@instagram.com	http://nytimes.com
Pittsburgh	Pennsylvania	15235	391 Morning Crossing	4	Hill	Marilyn	1-(724)340-1573	mhill4c@independent.co.uk	https://cargocollective.com
Lake Worth	Florida	33467	4045 Knutson Court	0	Bryant	Kevin	1-(561)479-4046	kbryant4d@shutterfly.com	https://ebay.com
San Jose	California	95138	89080 Loomis Drive	64614	Wells	Paula	1-(408)296-6991	pwells4e@china.com.cn	https://webs.com
Denver	Colorado	80228	78312 Maple Wood Terrace	037	Foster	Patrick	1-(303)365-7854	pfoster4f@miibeian.gov.cn	http://canalblog.com
Norfolk	Virginia	23509	47 Pond Street	76	King	Steven	1-(757)503-9100	sking4g@dedecms.com	http://imgur.com
Danbury	Connecticut	06816	374 Barby Center	0	Daniels	Jeffrey	1-(203)821-6274	jdaniels4h@chronoengine.com	https://phpbb.com
Tulsa	Oklahoma	74103	49 Kinsman Junction	0	Martin	Kathryn	1-(918)892-0710	kmartin4i@netvibes.com	https://cargocollective.com
Indianapolis	Indiana	46266	7656 Corben Terrace	3240	Sanders	Ashley	1-(317)940-1227	asanders4j@reuters.com	http://sun.com
Ocala	Florida	34479	366 Milwaukee Road	96979	Patterson	Marilyn	1-(352)575-3725	mpatterson4k@hugedomains.com	https://google.ca
Washington	District of Columbia	20591	0976 Mifflin Pass	5058	Gibson	Frances	1-(202)668-8812	fgibson4l@xrea.com	http://bloomberg.com
Huntington Beach	California	92648	5226 Onsgard Crossing	6617	Bowman	Juan	1-(760)384-1043	jbowman4m@tinyurl.com	https://ask.com
San Antonio	Texas	78250	49 Moulton Road	24	Ramirez	Nicole	1-(210)981-6630	nramirez4n@purevolume.com	https://mediafire.com
El Paso	Texas	79977	2186 Sage Hill	0	Moreno	Harry	1-(915)815-2500	hmoreno4o@cornell.edu	https://samsung.com
Peoria	Illinois	61640	193 Manley Parkway	0241	Patterson	Robin	1-(309)755-2967	rpatterson4p@google.com.au	https://parallels.com
Pueblo	Colorado	81015	369 Onsgard Place	4	Gardner	Patricia	1-(719)963-4403	pgardner4q@is.gd	http://hud.gov
Richmond	Virginia	23228	5 Helena Place	36	Burns	Ronald	1-(804)635-9190	rburns4r@unblog.fr	https://google.com.au
Winston Salem	North Carolina	27105	85180 Hovde Point	36735	Marshall	Ashley	1-(336)725-3504	amarshall4s@earthlink.net	http://booking.com
Las Vegas	Nevada	89120	087 Jenna Crossing	124	Hansen	Paula	1-(702)452-3520	phansen4t@mashable.com	http://fda.gov
Reston	Virginia	22096	4802 Granby Center	89990	Ross	Jose	1-(571)559-0109	jross4u@slate.com	https://comcast.net
West Hartford	Connecticut	06127	344 Florence Trail	69	Clark	Juan	1-(860)699-5538	jclark4v@oakley.com	http://ft.com
Saint Louis	Missouri	63126	01962 Bonner Circle	75655	Cole	Gregory	1-(314)299-4155	gcole4w@last.fm	http://aboutads.info
Spokane	Washington	99260	50 Bunting Way	39	Graham	Roger	1-(509)126-4356	rgraham4x@dion.ne.jp	https://canalblog.com
Honolulu	Hawaii	96815	33 Golden Leaf Alley	5	Dunn	Deborah	1-(808)691-6896	ddunn4y@nasa.gov	http://wikia.com
Flushing	New York	11388	63 Gulseth Avenue	0	Lee	Howard	1-(347)442-5425	hlee4z@blog.com	https://alexa.com
West Palm Beach	Florida	33405	82328 Merrick Circle	2	Ford	Dennis	1-(772)708-5813	dford50@livejournal.com	https://taobao.com
Vero Beach	Florida	32964	412 Grasskamp Court	6	Little	Joyce	1-(772)610-5765	jlittle51@nps.gov	http://com.com
Sparks	Nevada	89436	388 Armistice Terrace	9	Carpenter	Nancy	1-(775)877-6901	ncarpenter52@sphinn.com	http://globo.com
Jackson	Mississippi	39210	62382 Melvin Hill	552	Daniels	Peter	1-(601)192-7345	pdaniels53@elpais.com	http://umich.edu
Savannah	Georgia	31405	5 Eagle Crest Street	64561	Patterson	Gerald	1-(912)865-7117	gpatterson54@instagram.com	https://creativecommons.org
Tyler	Texas	75705	3 Green Hill	34	Price	Russell	1-(903)836-7921	rprice55@chron.com	https://github.io
Phoenix	Arizona	85020	42893 Veith Street	84	Bowman	Joshua	1-(602)159-7981	jbowman56@reddit.com	https://dagondesign.com
Marietta	Georgia	30061	33932 Steensland Circle	27232	Hill	Jason	1-(770)786-3894	jhill57@go.com	https://nasa.gov
Bloomington	Indiana	47405	7371 Nancy Plaza	57221	Moore	Sara	1-(812)608-0780	smoore58@disqus.com	http://cpanel.net
Fort Lauderdale	Florida	33330	2 Harbort Hill	388	Jenkins	Harold	1-(954)324-9512	hjenkins59@salon.com	http://independent.co.uk
Austin	Texas	78710	0596 North Trail	56697	Reed	Antonio	1-(512)264-6255	areed5a@unblog.fr	http://theguardian.com
Washington	District of Columbia	20299	482 North Park	5521	Wood	Bobby	1-(202)657-1450	bwood5b@cbslocal.com	https://wisc.edu
Hattiesburg	Mississippi	39404	92311 Del Mar Pass	126	Mcdonald	Doris	1-(601)319-2002	dmcdonald5c@163.com	http://netvibes.com
Birmingham	Alabama	35210	4932 Leroy Court	5617	Lee	Christina	1-(334)913-9767	clee5d@hugedomains.com	https://biblegateway.com
Cincinnati	Ohio	45999	2297 Carioca Center	40	Patterson	Richard	1-(513)529-1637	rpatterson5e@mtv.com	http://ezinearticles.com
Kansas City	Kansas	66105	8357 Florence Court	29215	Baker	Daniel	1-(913)616-2144	dbaker5f@mtv.com	http://hubpages.com
San Diego	California	92153	64778 Dawn Circle	51677	Phillips	Ruth	1-(619)923-4444	rphillips5g@skyrock.com	http://over-blog.com
Pittsburgh	Pennsylvania	15274	149 Waywood Street	944	Richards	Frances	1-(412)380-4457	frichards5h@dell.com	https://ca.gov
Everett	Washington	98206	59 Transport Plaza	47960	Howell	Benjamin	1-(425)162-0854	bhowell5i@creativecommons.org	http://state.tx.us
Dallas	Texas	75287	0718 Mayer Lane	74	Black	Gregory	1-(469)560-3406	gblack5j@360.cn	https://aboutads.info
Pinellas Park	Florida	34665	1844 Oxford Junction	46503	Ortiz	Adam	1-(850)742-6819	aortiz5k@china.com.cn	http://nationalgeographic.com
Billings	Montana	59105	84865 Eliot Junction	385	Wright	Shawn	1-(406)683-8696	swright5l@gravatar.com	https://miitbeian.gov.cn
North Las Vegas	Nevada	89036	2 Merry Court	4	Mcdonald	Jesse	1-(702)328-4516	jmcdonald5m@cyberchimps.com	https://issuu.com
South Bend	Indiana	46620	477 New Castle Road	037	Hunter	Rebecca	1-(574)958-2943	rhunter5n@go.com	https://scribd.com
Evansville	Indiana	47725	10 Dexter Place	671	Peters	Lori	1-(812)633-6959	lpeters5o@icq.com	https://techcrunch.com
Duluth	Minnesota	55805	55 Iowa Hill	42703	Montgomery	Jeremy	1-(218)136-2121	jmontgomery5p@goo.ne.jp	http://engadget.com
San Antonio	Texas	78291	81112 Eggendart Alley	0343	Edwards	Paul	1-(210)336-4581	pedwards5q@homestead.com	https://usda.gov
Austin	Texas	78759	456 Jana Alley	8365	Olson	Louis	1-(512)898-8431	lolson5r@fda.gov	http://mail.ru
Dallas	Texas	75342	8095 Duke Junction	2	Green	Johnny	1-(214)736-0996	jgreen5s@a8.net	http://devhub.com
Columbus	Ohio	43240	2 Stoughton Road	57724	Johnston	Nicholas	1-(614)906-1319	njohnston5t@canalblog.com	http://cloudflare.com
Sterling	Virginia	20167	22906 6th Avenue	64850	Morris	Jack	1-(571)518-9185	jmorris5u@skyrock.com	http://is.gd
Glendale	Arizona	85311	7 South Drive	5003	Sanchez	Amy	1-(602)182-5200	asanchez5v@nytimes.com	https://moonfruit.com
Las Vegas	Nevada	89135	4995 Truax Way	8	Howard	George	1-(702)683-3154	ghoward5w@statcounter.com	https://slate.com
Rockford	Illinois	61105	0 Leroy Hill	9	Baker	Louis	1-(815)863-8176	lbaker5x@wordpress.org	https://photobucket.com
Trenton	New Jersey	08695	3788 Autumn Leaf Park	1825	Johnson	Phillip	1-(609)447-6431	pjohnson5y@nymag.com	https://theglobeandmail.com
Shawnee Mission	Kansas	66286	10095 Eliot Lane	25447	Lee	Carl	1-(913)755-3063	clee5z@github.io	http://imgur.com
Mobile	Alabama	36622	442 Summerview Avenue	04237	Castillo	Angela	1-(251)701-4197	acastillo60@prweb.com	http://latimes.com
Memphis	Tennessee	38136	20 Holy Cross Center	8111	Pierce	Nicholas	1-(901)913-5732	npierce61@weibo.com	http://senate.gov
Newport Beach	California	92662	53 Hanson Drive	6347	Black	Frank	1-(949)833-3558	fblack62@si.edu	http://un.org
Charlotte	North Carolina	28215	0 Division Place	49829	Snyder	Diane	1-(704)678-8459	dsnyder63@mapy.cz	https://wsj.com
Bryan	Texas	77806	21181 Florence Crossing	485	Ward	Mary	1-(979)817-9073	mward64@umich.edu	http://imdb.com
Memphis	Tennessee	38188	44542 Mitchell Center	3	Hill	Catherine	1-(901)853-2932	chill65@360.cn	https://aboutads.info
Myrtle Beach	South Carolina	29579	9754 Thierer Trail	70	Stewart	Martha	1-(843)412-5230	mstewart66@google.nl	http://youtu.be
Oklahoma City	Oklahoma	73147	9901 Westerfield Park	85623	Matthews	Martha	1-(405)217-9706	mmatthews67@vinaora.com	http://ftc.gov
New York City	New York	10024	34 Hayes Terrace	5	Evans	Thomas	1-(646)161-1874	tevans68@wisc.edu	https://gnu.org
Tacoma	Washington	98442	81933 Schiller Center	4576	Lopez	Walter	1-(253)819-0409	wlopez69@networksolutions.com	https://dell.com
Philadelphia	Pennsylvania	19131	0 Graceland Street	4800	Hill	Susan	1-(215)218-5481	shill6a@360.cn	http://elegantthemes.com
Austin	Texas	78703	893 6th Alley	98	King	Gloria	1-(512)583-3158	gking6b@oracle.com	https://webs.com
Seattle	Washington	98104	7 Novick Plaza	9	Welch	Kimberly	1-(253)503-1958	kwelch6c@discovery.com	https://domainmarket.com
Ogden	Utah	84409	1334 Carey Lane	980	Rivera	Carlos	1-(801)892-4718	crivera6d@ning.com	http://studiopress.com
Long Beach	California	90840	4413 Cherokee Avenue	08945	Garcia	Gerald	1-(562)586-6542	ggarcia6e@pagesperso-orange.fr	http://stanford.edu
Washington	District of Columbia	20062	7 Gerald Place	29942	Tucker	Matthew	1-(202)616-1275	mtucker6f@nyu.edu	http://feedburner.com
Oakland	California	94660	2378 Alpine Trail	2	Foster	Howard	1-(510)303-1271	hfoster6g@globo.com	http://princeton.edu
New York City	New York	10024	0 Roth Drive	0	Dunn	Amy	1-(212)235-4305	adunn6h@elegantthemes.com	https://hatena.ne.jp
Louisville	Kentucky	40280	9808 Myrtle Junction	63861	Larson	Aaron	1-(502)495-0033	alarson6i@nifty.com	https://twitpic.com
Bryan	Texas	77806	0 Vernon Avenue	185	Dixon	William	1-(979)387-2095	wdixon6j@webs.com	https://virginia.edu
Springfield	Illinois	62723	35 Morrow Plaza	1	Snyder	Helen	1-(217)217-2971	hsnyder6k@cnbc.com	https://feedburner.com
Birmingham	Alabama	35210	64068 Linden Road	24	Sullivan	Rose	1-(205)472-2975	rsullivan6l@cornell.edu	http://toplist.cz
New York City	New York	10170	6 Aberg Point	5	Ortiz	Shirley	1-(212)223-7908	sortiz6m@google.ru	https://nifty.com
Arlington	Texas	76011	8090 Kipling Way	4	Weaver	Christopher	1-(682)618-3697	cweaver6n@tamu.edu	http://fotki.com
Berkeley	California	94712	05 Buena Vista Junction	46248	Torres	William	1-(510)797-5928	wtorres6o@hostgator.com	https://stanford.edu
Saint Petersburg	Florida	33737	5504 Gina Crossing	5524	Flores	Beverly	1-(727)225-7374	bflores6p@digg.com	http://prnewswire.com
Seattle	Washington	98115	7 Rusk Lane	9	Montgomery	Carlos	1-(425)960-9996	cmontgomery6q@icio.us	http://google.it
Chicago	Illinois	60681	5108 Canary Lane	463	Bryant	William	1-(312)443-3685	wbryant6r@jiathis.com	http://nasa.gov
Washington	District of Columbia	20540	431 School Terrace	907	Rivera	Jeremy	1-(202)968-7507	jrivera6s@irs.gov	http://auda.org.au
Washington	District of Columbia	20231	23 Crowley Drive	262	Stephens	Carl	1-(202)725-1332	cstephens6t@weebly.com	https://google.com.hk
New York City	New York	10024	311 Eastwood Plaza	9673	Burton	Jimmy	1-(917)722-9024	jburton6u@paypal.com	http://scribd.com
Lynchburg	Virginia	24515	70 Vermont Trail	1975	Arnold	Teresa	1-(434)299-4027	tarnold6v@who.int	http://amazonaws.com
Miami	Florida	33196	78405 Larry Court	2	White	Gregory	1-(786)251-2339	gwhite6w@indiegogo.com	http://sciencedaily.com
Rochester	Minnesota	55905	591 Lotheville Junction	033	Wallace	Martin	1-(507)161-1482	mwallace6x@opera.com	http://google.de
Fort Myers	Florida	33994	67 Green Lane	10693	Peters	Brenda	1-(239)736-7289	bpeters6y@icio.us	https://blogspot.com
Saint Louis	Missouri	63196	2 High Crossing Park	28	Watkins	Jack	1-(314)853-2610	jwatkins6z@infoseek.co.jp	https://alibaba.com
Washington	District of Columbia	20073	7 Warner Point	240	Harper	Phyllis	1-(202)192-0551	pharper70@about.com	https://ycombinator.com
Crawfordsville	Indiana	47937	0 Annamark Alley	272	Reynolds	Christina	1-(765)752-9778	creynolds71@amazon.com	https://clickbank.net
Baton Rouge	Louisiana	70826	0902 Knutson Pass	58207	Willis	Sean	1-(225)941-8003	swillis72@oaic.gov.au	https://ucoz.ru
Denver	Colorado	80249	1 Sunfield Way	540	Hanson	Jack	1-(720)271-5126	jhanson73@squidoo.com	http://dion.ne.jp
Richmond	Virginia	23225	80464 Carberry Center	3029	Harris	Kathryn	1-(757)403-1025	kharris74@uiuc.edu	https://shinystat.com
New York City	New York	10170	0 Merchant Lane	4883	Moreno	Randy	1-(646)796-5957	rmoreno75@webs.com	https://usa.gov
Santa Monica	California	90410	5 Vahlen Parkway	036	Mcdonald	Roy	1-(310)306-6040	rmcdonald76@sphinn.com	https://mail.ru
Independence	Missouri	64054	9026 Eagle Crest Trail	6524	Gordon	Frances	1-(816)739-1373	fgordon77@addthis.com	http://mashable.com
Orlando	Florida	32868	7 Ohio Street	95321	Ferguson	Timothy	1-(407)106-0911	tferguson78@umich.edu	https://cargocollective.com
Kansas City	Missouri	64199	02 Blackbird Avenue	86	Montgomery	Carol	1-(816)385-2211	cmontgomery79@acquirethisname.com	http://webeden.co.uk
Gary	Indiana	46406	73 Menomonie Court	60076	Morgan	Jeffrey	1-(219)351-3289	jmorgan7a@google.com.hk	http://sogou.com
Long Beach	California	90831	823 Warbler Center	779	Coleman	Mary	1-(562)465-0540	mcoleman7b@slashdot.org	https://booking.com
Bronx	New York	10474	61 Daystar Alley	92	Stevens	Kathleen	1-(917)752-7751	kstevens7c@zdnet.com	http://virginia.edu
Springfield	Illinois	62776	31977 Muir Drive	0636	Austin	Bonnie	1-(217)871-8333	baustin7d@quantcast.com	http://cloudflare.com
Oklahoma City	Oklahoma	73142	98 Sullivan Court	9	Smith	Gregory	1-(405)601-2949	gsmith7e@squidoo.com	http://dagondesign.com
Springfield	Massachusetts	01105	3 Red Cloud Way	2613	Harvey	David	1-(413)685-5528	dharvey7f@alexa.com	http://sciencedaily.com
Fresno	California	93715	931 Main Court	76	Mills	Willie	1-(559)514-4665	wmills7g@pcworld.com	https://ibm.com
Oklahoma City	Oklahoma	73109	021 Jenifer Parkway	4	Moore	Justin	1-(405)498-3215	jmoore7h@apple.com	https://vistaprint.com
Juneau	Alaska	99812	150 Riverside Junction	9	Morrison	Christopher	1-(907)386-4854	cmorrison7i@foxnews.com	https://guardian.co.uk
Flint	Michigan	48505	5 Kinsman Pass	5260	Watkins	Ashley	1-(810)895-9673	awatkins7j@miibeian.gov.cn	http://illinois.edu
Buffalo	New York	14233	3179 Talmadge Terrace	516	Warren	Philip	1-(716)982-7846	pwarren7k@omniture.com	https://cisco.com
Minneapolis	Minnesota	55448	60 Aberg Plaza	5596	Taylor	Antonio	1-(763)388-7657	ataylor7l@usda.gov	http://people.com.cn
Birmingham	Alabama	35295	5927 Graceland Hill	75	Miller	Daniel	1-(205)768-1201	dmiller7m@people.com.cn	http://google.nl
Washington	District of Columbia	20067	4942 Eagan Street	04	Perry	Kimberly	1-(202)489-2965	kperry7n@wisc.edu	http://xinhuanet.com
Tampa	Florida	33647	1 Texas Way	63	Barnes	Judy	1-(813)992-1976	jbarnes7o@accuweather.com	https://mysql.com
Fresno	California	93750	5841 Stephen Circle	421	Howard	Billy	1-(559)698-3611	bhoward7p@tripadvisor.com	http://ted.com
Kansas City	Missouri	64114	022 Westend Alley	00311	Fields	Sarah	1-(816)353-5750	sfields7q@tmall.com	https://webmd.com
Houston	Texas	77201	084 Vermont Pass	24415	Nguyen	Steve	1-(832)242-1998	snguyen7r@chron.com	https://dyndns.org
San Bernardino	California	92415	2 Nancy Circle	303	Bishop	Willie	1-(760)574-4817	wbishop7s@craigslist.org	http://tiny.cc
Flushing	New York	11388	70 Lerdahl Terrace	20680	Perez	Walter	1-(718)314-7003	wperez7t@networkadvertising.org	http://technorati.com
Escondido	California	92030	70 Meadow Vale Drive	59097	Hughes	Edward	1-(760)720-6891	ehughes7u@scientificamerican.com	https://wordpress.com
New Haven	Connecticut	06505	584 Brentwood Point	13065	Ferguson	Rachel	1-(203)332-4210	rferguson7v@youtube.com	https://newsvine.com
Alhambra	California	91841	43000 Mockingbird Lane	86464	Snyder	Martha	1-(626)949-5532	msnyder7w@youtube.com	https://eepurl.com
Falls Church	Virginia	22047	78819 Hovde Road	8332	Hill	Mary	1-(571)770-5934	mhill7x@w3.org	https://squidoo.com
Burbank	California	91520	84 Springview Way	9	Hanson	Jane	1-(323)121-6157	jhanson7y@samsung.com	https://fastcompany.com
Fort Wayne	Indiana	46867	5513 Helena Plaza	288	Hunter	Diane	1-(260)479-1652	dhunter7z@ftc.gov	https://answers.com
Pensacola	Florida	32520	0247 Grayhawk Hill	83359	Dean	Andrea	1-(850)333-0518	adean80@arstechnica.com	http://nps.gov
Miami	Florida	33134	5 Emmet Alley	3415	Gilbert	Brenda	1-(786)928-5443	bgilbert81@dot.gov	http://thetimes.co.uk
North Little Rock	Arkansas	72199	7 Hanson Hill	661	White	Doris	1-(501)604-4772	dwhite82@vk.com	http://webs.com
Huntington Beach	California	92648	94 Talisman Junction	3719	Armstrong	Chris	1-(714)737-0694	carmstrong83@unblog.fr	https://prweb.com
Brooklyn	New York	11210	5 Judy Pass	58	Morrison	Mildred	1-(347)598-5258	mmorrison84@google.de	http://seesaa.net
Lancaster	Pennsylvania	17605	8606 Maryland Drive	51624	Martin	Craig	1-(717)230-5659	cmartin85@phpbb.com	http://miibeian.gov.cn
Saint Louis	Missouri	63196	614 Meadow Ridge Avenue	998	Adams	Clarence	1-(314)421-2577	cadams86@usgs.gov	http://npr.org
Richmond	Virginia	23293	02749 Hallows Street	6281	Cooper	Diane	1-(804)577-7567	dcooper87@storify.com	https://cbslocal.com
Jacksonville	Florida	32215	22 Ramsey Circle	1	Jenkins	Scott	1-(904)522-3603	sjenkins88@whitehouse.gov	https://irs.gov
Lubbock	Texas	79491	6775 Ryan Lane	2	Rose	Steve	1-(806)964-9303	srose89@pcworld.com	http://tmall.com
Saint Paul	Minnesota	55127	65 Clemons Crossing	7101	Armstrong	Jimmy	1-(651)993-9764	jarmstrong8a@unblog.fr	https://gnu.org
Fort Worth	Texas	76162	837 Mallory Street	8227	Ford	Timothy	1-(682)487-4670	tford8b@vistaprint.com	http://house.gov
Honolulu	Hawaii	96840	52005 School Pass	820	Hernandez	Steven	1-(808)502-4319	shernandez8c@technorati.com	https://ameblo.jp
Philadelphia	Pennsylvania	19196	66 Sullivan Way	998	Vasquez	Jeremy	1-(215)854-5468	jvasquez8d@desdev.cn	https://sphinn.com
Alpharetta	Georgia	30022	1565 Summit Street	0	Carroll	Jessica	1-(678)386-7997	jcarroll8e@w3.org	https://whitehouse.gov
Chicago	Illinois	60669	21 Atwood Lane	1	Gonzales	Lisa	1-(312)420-2899	lgonzales8f@slideshare.net	http://telegraph.co.uk
South Lake Tahoe	California	96154	1451 Carberry Hill	642	Bowman	Diana	1-(530)680-4711	dbowman8g@walmart.com	https://eventbrite.com
Dayton	Ohio	45440	562 Redwing Parkway	823	Simpson	Kevin	1-(937)894-8733	ksimpson8h@uiuc.edu	http://nyu.edu
Louisville	Kentucky	40215	9263 Bonner Road	638	Daniels	Andrea	1-(502)330-8327	adaniels8i@last.fm	https://senate.gov
Irving	Texas	75062	97496 Superior Crossing	080	Barnes	Kelly	1-(972)392-1290	kbarnes8j@jigsy.com	https://cbc.ca
Sacramento	California	94250	12 Anhalt Junction	31775	Stanley	Donald	1-(916)413-9070	dstanley8k@ihg.com	https://hud.gov
Oklahoma City	Oklahoma	73190	821 Glacier Hill Center	1	Nichols	Robert	1-(405)942-3441	rnichols8l@pagesperso-orange.fr	https://gov.uk
Sacramento	California	94245	39 Pennsylvania Hill	45	Alexander	Kelly	1-(916)922-3968	kalexander8m@privacy.gov.au	http://gov.uk
Saint Cloud	Minnesota	56398	76 Stone Corner Trail	3403	Hayes	Donna	1-(320)708-8096	dhayes8n@paypal.com	http://wordpress.com
San Bernardino	California	92410	09 Monument Lane	5362	Frazier	Melissa	1-(951)724-2638	mfrazier8o@bbb.org	https://craigslist.org
Pueblo	Colorado	81015	08 Mayer Parkway	76180	Willis	Linda	1-(719)733-2431	lwillis8p@tinypic.com	http://mozilla.com
Odessa	Texas	79769	6 Riverside Circle	65	Woods	Maria	1-(432)813-7523	mwoods8q@cpanel.net	https://networkadvertising.org
New York City	New York	10099	80249 Leroy Court	41	Elliott	Daniel	1-(646)106-1044	delliott8r@infoseek.co.jp	https://angelfire.com
Kansas City	Kansas	66160	40614 Bunting Pass	02971	Porter	Ruby	1-(913)302-4375	rporter8s@discuz.net	http://amazon.de
Arvada	Colorado	80005	1255 Maple Trail	87	Sanders	Billy	1-(303)324-9432	bsanders8t@hibu.com	http://mapy.cz
Buffalo	New York	14269	322 Sloan Point	09	Bell	Justin	1-(716)138-9563	jbell8u@shop-pro.jp	https://youku.com
Washington	District of Columbia	20051	65216 Erie Lane	44	Mills	Janice	1-(202)276-1538	jmills8v@icq.com	https://xinhuanet.com
Charlotte	North Carolina	28247	660 Marcy Trail	37517	Martinez	Diana	1-(704)654-2089	dmartinez8w@businessinsider.com	https://sun.com
Santa Ana	California	92725	96 Maple Wood Pass	95	Lane	Carlos	1-(714)618-7981	clane8x@i2i.jp	https://photobucket.com
Homestead	Florida	33034	17 Katie Trail	1	Carter	Ronald	1-(786)239-3600	rcarter8y@shareasale.com	https://bigcartel.com
Boston	Massachusetts	02124	0 Glacier Hill Road	823	Simmons	Amanda	1-(617)684-8190	asimmons8z@e-recht24.de	https://jigsy.com
Buffalo	New York	14205	37548 Loeprich Point	10049	Gordon	Denise	1-(716)638-3993	dgordon90@instagram.com	https://feedburner.com
Fredericksburg	Virginia	22405	42 Chinook Circle	545	Phillips	Ashley	1-(540)365-8043	aphillips91@independent.co.uk	https://gmpg.org
Tulsa	Oklahoma	74184	284 Mitchell Crossing	692	Rogers	Angela	1-(918)434-2952	arogers92@yahoo.co.jp	http://senate.gov
Marietta	Georgia	30061	02356 Loftsgordon Road	323	Nichols	Robin	1-(770)696-9347	rnichols93@independent.co.uk	http://xing.com
Wilmington	Delaware	19810	4716 Rowland Way	57925	Turner	Diana	1-(302)452-8977	dturner94@kickstarter.com	http://sitemeter.com
Denver	Colorado	80262	4 Kinsman Park	2000	Watkins	Jonathan	1-(303)420-3964	jwatkins95@netlog.com	http://woothemes.com
Kansas City	Missouri	64125	4469 Prentice Center	63109	Hansen	Jean	1-(816)228-7923	jhansen96@issuu.com	https://apple.com
Tampa	Florida	33694	02 Corry Pass	912	Smith	Joe	1-(813)911-2272	jsmith97@lulu.com	http://washingtonpost.com
Levittown	Pennsylvania	19058	1 Dorton Pass	7635	Rose	Laura	1-(267)413-4973	lrose98@loc.gov	https://biblegateway.com
Milwaukee	Wisconsin	53234	5760 Emmet Hill	246	Hall	Heather	1-(414)776-5827	hhall99@github.io	https://earthlink.net
Oakland	California	94660	511 Vermont Drive	9620	Stewart	Bonnie	1-(510)587-2995	bstewart9a@diigo.com	https://arstechnica.com
Reno	Nevada	89519	800 Mosinee Circle	611	Fuller	Jeffrey	1-(775)345-2471	jfuller9b@de.vu	http://w3.org
Irvine	California	92619	76 Darwin Lane	66343	Griffin	Dennis	1-(949)322-9882	dgriffin9c@unc.edu	https://yellowpages.com
Gaithersburg	Maryland	20883	45 Arapahoe Pass	3811	Banks	Melissa	1-(240)443-2610	mbanks9d@archive.org	https://google.ru
Miami	Florida	33245	14974 Gerald Pass	85016	Ford	Douglas	1-(786)743-3039	dford9e@walmart.com	https://rambler.ru
Minneapolis	Minnesota	55458	30309 Meadow Valley Road	00526	Richards	Kathryn	1-(612)635-3535	krichards9f@dropbox.com	http://gmpg.org
New Haven	Connecticut	06538	22 Hovde Avenue	8335	Sanders	Joyce	1-(203)366-9623	jsanders9g@nationalgeographic.com	http://netlog.com
Irvine	California	92612	8850 Kings Pass	7246	Nichols	Billy	1-(510)724-0424	bnichols9h@youku.com	https://storify.com
Brooklyn	New York	11241	87440 Miller Plaza	135	Butler	Rebecca	1-(347)551-6018	rbutler9i@posterous.com	http://wikia.com
Fort Wayne	Indiana	46896	155 Village Terrace	50208	Welch	Donald	1-(260)698-5440	dwelch9j@prweb.com	http://oakley.com
Fort Pierce	Florida	34949	8448 Meadow Ridge Avenue	0241	Wells	Denise	1-(772)443-9175	dwells9k@home.pl	http://slate.com
North Hollywood	California	91606	9252 Corscot Crossing	149	Chapman	Frances	1-(323)476-7983	fchapman9l@hp.com	https://ycombinator.com
Jamaica	New York	11447	20 Leroy Way	9	Rose	Juan	1-(917)410-1294	jrose9m@abc.net.au	http://harvard.edu
Beaumont	Texas	77713	9046 Sunfield Way	9	Bishop	Anna	1-(409)826-3603	abishop9n@youku.com	http://uol.com.br
San Antonio	Texas	78265	87295 Briar Crest Street	128	Tucker	Karen	1-(210)482-5772	ktucker9o@intel.com	http://hugedomains.com
Brooklyn	New York	11205	8 Golden Leaf Place	4088	Armstrong	Margaret	1-(646)231-2210	marmstrong9p@vistaprint.com	http://nbcnews.com
Akron	Ohio	44315	70341 Service Trail	88	Wells	Melissa	1-(330)474-2939	mwells9q@blogs.com	http://netscape.com
Bakersfield	California	93305	0588 Larry Junction	57889	Diaz	Jeffrey	1-(805)600-9999	jdiaz9r@webmd.com	https://columbia.edu
Bradenton	Florida	34282	85 Transport Alley	8	Daniels	James	1-(941)541-6443	jdaniels9s@gov.uk	https://miibeian.gov.cn
Baton Rouge	Louisiana	70836	663 Almo Hill	04	Reyes	Elizabeth	1-(225)754-0398	ereyes9t@nyu.edu	https://pen.io
Pasadena	California	91109	43658 Comanche Circle	21748	Nelson	George	1-(626)797-7247	gnelson9u@comcast.net	http://virginia.edu
Portland	Oregon	97229	54 Emmet Trail	682	Gonzalez	Carl	1-(503)160-1550	cgonzalez9v@seesaa.net	https://washingtonpost.com
Ridgely	Maryland	21684	29 Aberg Avenue	58	Coleman	Heather	1-(410)725-7374	hcoleman9w@wufoo.com	http://mayoclinic.com
Carol Stream	Illinois	60158	67882 Coolidge Hill	67	Henderson	Eric	1-(309)588-8755	ehenderson9x@theguardian.com	http://elegantthemes.com
Peoria	Illinois	61605	3856 Troy Junction	2636	Bennett	Tina	1-(309)206-1613	tbennett9y@github.com	http://github.com
Carol Stream	Illinois	60158	996 Morningstar Park	88858	Porter	Henry	1-(309)307-2518	hporter9z@ow.ly	http://ifeng.com
Huntington	West Virginia	25709	64 Waywood Trail	6	Gonzales	Adam	1-(304)123-0770	agonzalesa0@last.fm	http://xrea.com
Atlanta	Georgia	30392	227 Gerald Point	8796	Stone	Martin	1-(404)594-7507	mstonea1@state.gov	https://technorati.com
Bellevue	Washington	98008	478 Lien Pass	01200	Perry	Jerry	1-(425)527-8874	jperrya2@ca.gov	http://mapquest.com
Saint Paul	Minnesota	55188	88 John Wall Avenue	88200	Hunter	Tina	1-(651)571-0936	thuntera3@miibeian.gov.cn	https://rediff.com
Detroit	Michigan	48267	138 Warner Trail	4	Larson	Rachel	1-(313)820-3534	rlarsona4@desdev.cn	http://macromedia.com
Saint Louis	Missouri	63169	25 Northport Pass	12	Franklin	Betty	1-(314)824-7313	bfranklina5@patch.com	http://netlog.com
Pensacola	Florida	32511	788 Hovde Circle	8	Black	Helen	1-(850)597-9461	hblacka6@forbes.com	https://barnesandnoble.com
Sarasota	Florida	34233	07 Fairview Street	6868	Burton	Nancy	1-(941)895-9646	nburtona7@people.com.cn	https://slideshare.net
Buffalo	New York	14220	8438 1st Place	2	Gordon	Philip	1-(716)167-5697	pgordona8@digg.com	https://narod.ru
Kalamazoo	Michigan	49006	3248 Village Green Drive	53	Jenkins	Richard	1-(269)242-2702	rjenkinsa9@webs.com	http://clickbank.net
Denton	Texas	76205	87267 High Crossing Park	23	Alvarez	Maria	1-(940)183-3093	malvarezaa@scientificamerican.com	http://irs.gov
Harrisburg	Pennsylvania	17140	38 Melby Parkway	7	Cunningham	Joan	1-(717)532-5518	jcunninghamab@youku.com	http://ihg.com
Abilene	Texas	79699	697 Gulseth Junction	28	Hunt	Catherine	1-(325)389-1185	chuntac@ox.ac.uk	https://shop-pro.jp
Newton	Massachusetts	02162	6655 Lunder Street	4	Pierce	Debra	1-(508)183-7550	dpiercead@washington.edu	https://eepurl.com
White Plains	New York	10633	36403 Waxwing Way	97956	Thompson	Clarence	1-(914)113-1421	cthompsonae@boston.com	http://weebly.com
Houston	Texas	77085	53 Havey Alley	35808	Garrett	Christopher	1-(281)985-0615	cgarrettaf@google.es	https://taobao.com
San Diego	California	92121	01870 Twin Pines Plaza	8	Sims	Roger	1-(858)406-2655	rsimsag@google.es	http://ebay.co.uk
Prescott	Arizona	86305	53 Hagan Drive	1780	Hunter	Christina	1-(520)538-6198	chunterah@nymag.com	http://fastcompany.com
Richmond	Virginia	23237	906 Schmedeman Pass	694	Hunter	Brian	1-(804)293-9634	bhunterai@cafepress.com	https://columbia.edu
Gainesville	Florida	32605	02 Blue Bill Park Hill	82	Marshall	Carlos	1-(352)329-7823	cmarshallaj@wordpress.org	https://statcounter.com
Bethesda	Maryland	20816	926 Loomis Crossing	312	Watkins	Charles	1-(240)229-8184	cwatkinsak@addthis.com	https://phoca.cz
Dayton	Ohio	45432	60 Mendota Crossing	853	Payne	Philip	1-(937)283-0453	ppayneal@bizjournals.com	https://hhs.gov
Santa Clara	California	95054	99 Almo Circle	75	Peters	Joseph	1-(858)947-3758	jpetersam@state.gov	http://51.la
Shawnee Mission	Kansas	66220	6037 Chive Street	7	Lawson	Christina	1-(913)183-7416	clawsonan@seesaa.net	http://google.ru
Tulsa	Oklahoma	74126	8 Jana Trail	0	Sanchez	Angela	1-(918)465-7930	asanchezao@addtoany.com	https://sina.com.cn
Houston	Texas	77040	68 Melody Street	12265	Hanson	Adam	1-(713)778-7345	ahansonap@mit.edu	https://diigo.com
Jackson	Mississippi	39204	93295 Evergreen Road	7601	Webb	Willie	1-(601)158-1274	wwebbaq@taobao.com	http://usa.gov
Dallas	Texas	75397	91 Hudson Crossing	98555	Miller	Keith	1-(214)322-6625	kmillerar@nbcnews.com	https://ehow.com
Sacramento	California	95838	41 Bonner Place	980	George	Matthew	1-(916)474-2969	mgeorgeas@odnoklassniki.ru	http://psu.edu
Pittsburgh	Pennsylvania	15240	3 Tomscot Center	41	Hart	Lawrence	1-(412)779-8886	lhartat@nbcnews.com	http://t-online.de
Austin	Texas	78769	8 Brentwood Terrace	5169	Freeman	Maria	1-(512)304-2901	mfreemanau@dailymail.co.uk	https://fastcompany.com
Austin	Texas	78737	0 Fairview Road	285	Nichols	Michelle	1-(512)521-6702	mnicholsav@myspace.com	https://istockphoto.com
Jacksonville	Florida	32209	2 Crowley Crossing	71769	Butler	Gary	1-(904)238-2915	gbutleraw@fastcompany.com	https://imageshack.us
Young America	Minnesota	55573	29244 Katie Street	3987	Ellis	Scott	1-(952)260-2376	sellisax@scribd.com	https://forbes.com
Des Moines	Iowa	50362	3482 Banding Place	9	Banks	Eric	1-(515)276-0455	ebanksay@globo.com	https://dailymotion.com
Arlington	Virginia	22225	8 Commercial Place	74	Owens	Henry	1-(571)339-3080	howensaz@oaic.gov.au	http://npr.org
Washington	District of Columbia	20575	35 Northfield Terrace	2	Gonzalez	Earl	1-(202)464-2168	egonzalezb0@mit.edu	https://zdnet.com
Jacksonville	Florida	32204	0 Raven Alley	78677	Schmidt	Ralph	1-(904)111-0157	rschmidtb1@unesco.org	http://auda.org.au
Anchorage	Alaska	99517	24 American Park	9	Harper	Robin	1-(907)291-4059	rharperb2@artisteer.com	https://utexas.edu
Canton	Ohio	44760	65 Hollow Ridge Parkway	5	Mccoy	Charles	1-(234)219-1556	cmccoyb3@macromedia.com	http://chicagotribune.com
Tulsa	Oklahoma	74149	56709 Green Lane	9627	Perkins	Jerry	1-(918)913-1691	jperkinsb4@1688.com	http://1und1.de
Saint Augustine	Florida	32092	4132 Melby Hill	9	Graham	Cheryl	1-(904)323-8105	cgrahamb5@google.com.hk	https://chron.com
Huntsville	Alabama	35815	7739 Heffernan Terrace	933	Hamilton	Lisa	1-(256)652-0356	lhamiltonb6@booking.com	https://hatena.ne.jp
Milwaukee	Wisconsin	53205	471 3rd Street	81244	Carroll	Gregory	1-(920)983-1638	gcarrollb7@sohu.com	http://cisco.com
Dallas	Texas	75231	9776 New Castle Parkway	29	Carter	Brian	1-(214)673-6541	bcarterb8@yale.edu	http://cbsnews.com
Reading	Pennsylvania	19605	5452 Lerdahl Lane	7433	Jordan	Walter	1-(610)335-3804	wjordanb9@ning.com	https://oracle.com
Lafayette	Indiana	47905	664 Melby Park	460	Cruz	Philip	1-(765)474-9309	pcruzba@issuu.com	http://unblog.fr
Anchorage	Alaska	99512	76630 Kenwood Circle	57832	Lane	Marilyn	1-(907)903-5873	mlanebb@biglobe.ne.jp	https://eventbrite.com
New York City	New York	10160	187 Garrison Center	042	Chapman	Debra	1-(212)496-8146	dchapmanbc@parallels.com	http://tumblr.com
Maple Plain	Minnesota	55579	0186 Derek Pass	34766	Oliver	Sara	1-(952)513-0851	soliverbd@xinhuanet.com	http://irs.gov
Milwaukee	Wisconsin	53220	8 Waubesa Junction	6716	Jacobs	Fred	1-(414)569-3735	fjacobsbe@usda.gov	http://dot.gov
Saint Louis	Missouri	63126	6 Pierstorff Pass	6021	Kelley	Samuel	1-(314)206-3294	skelleybf@house.gov	http://ox.ac.uk
Pompano Beach	Florida	33075	35 Bunting Parkway	3	Ferguson	Daniel	1-(754)414-0286	dfergusonbg@hc360.com	https://nbcnews.com
New Orleans	Louisiana	70165	921 Fordem Pass	33693	Allen	Jason	1-(504)322-5125	jallenbh@goo.gl	http://geocities.jp
Pittsburgh	Pennsylvania	15250	469 Evergreen Center	878	Hansen	Paula	1-(412)877-9905	phansenbi@engadget.com	https://vk.com
Orlando	Florida	32835	0 Bobwhite Park	485	Willis	Jane	1-(321)911-0996	jwillisbj@thetimes.co.uk	http://google.pl
San Antonio	Texas	78220	13940 Prairieview Parkway	68	Moreno	Lillian	1-(210)683-5791	lmorenobk@forbes.com	https://usa.gov
Albuquerque	New Mexico	87105	54 Gateway Street	91990	Watkins	Gloria	1-(505)489-2906	gwatkinsbl@paypal.com	http://sina.com.cn
San Rafael	California	94913	6 Pierstorff Circle	80381	Romero	Billy	1-(415)139-1594	bromerobm@paypal.com	http://dot.gov
Reno	Nevada	89510	71896 Starling Way	478	Castillo	Shawn	1-(775)607-5096	scastillobn@surveymonkey.com	https://tmall.com
New Orleans	Louisiana	70142	5 Monterey Court	64476	Howell	Diana	1-(504)531-3632	dhowellbo@irs.gov	https://diigo.com
Monticello	Minnesota	55585	0 Rusk Park	81	Alexander	Benjamin	1-(763)581-1871	balexanderbp@hc360.com	https://addthis.com
Atlanta	Georgia	30301	9 Texas Avenue	0	Fuller	Raymond	1-(678)209-2681	rfullerbq@sohu.com	https://amazonaws.com
Fort Wayne	Indiana	46896	12 Shasta Way	84317	Nelson	George	1-(260)811-3323	gnelsonbr@who.int	http://cloudflare.com
Fresno	California	93704	88 Lakewood Gardens Center	0928	Price	Mark	1-(209)103-6708	mpricebs@usatoday.com	https://i2i.jp
Port Washington	New York	11054	1588 North Alley	81	Simpson	Steven	1-(516)812-9972	ssimpsonbt@exblog.jp	http://google.com.br
Las Vegas	Nevada	89135	162 Erie Road	960	Carr	Louise	1-(702)663-7643	lcarrbu@a8.net	http://dot.gov
Chicago	Illinois	60663	388 Summer Ridge Pass	2944	Hunt	Lisa	1-(312)547-3756	lhuntbv@squarespace.com	http://theguardian.com
San Diego	California	92121	6 Utah Hill	9	Williams	Jessica	1-(760)509-1067	jwilliamsbw@shop-pro.jp	http://e-recht24.de
Atlanta	Georgia	30340	3101 Upham Lane	41	Fuller	Fred	1-(770)644-6027	ffullerbx@dedecms.com	http://fda.gov
Carlsbad	California	92013	151 Gulseth Place	9805	Tucker	Ann	1-(760)632-1683	atuckerby@ustream.tv	http://blog.com
Fresno	California	93778	8250 Bartelt Lane	971	Hunt	Clarence	1-(559)634-0660	chuntbz@istockphoto.com	https://redcross.org
Chattanooga	Tennessee	37450	19 Rockefeller Trail	15	Holmes	Alice	1-(423)380-2564	aholmesc0@dion.ne.jp	http://usnews.com
Minneapolis	Minnesota	55480	8 Loftsgordon Road	13	Gray	Ralph	1-(612)463-5109	rgrayc1@dell.com	http://fotki.com
Pensacola	Florida	32590	45060 Sunfield Way	2508	Gray	Billy	1-(850)748-6806	bgrayc2@blinklist.com	https://admin.ch
Bridgeport	Connecticut	06606	9 Lawn Lane	92	Turner	Thomas	1-(203)190-9901	tturnerc3@creativecommons.org	https://timesonline.co.uk
Muncie	Indiana	47306	125 Hooker Plaza	95597	Jones	Joshua	1-(765)264-7426	jjonesc4@sina.com.cn	http://google.de
Buffalo	New York	14210	40 Red Cloud Street	2	Andrews	Tammy	1-(716)540-9286	tandrewsc5@ning.com	https://youku.com
Fort Lauderdale	Florida	33315	27 Clarendon Point	4	Chapman	Carl	1-(954)952-1372	cchapmanc6@desdev.cn	https://mlb.com
Mesa	Arizona	85210	87451 Starling Place	3159	Medina	Janice	1-(480)263-2810	jmedinac7@so-net.ne.jp	https://unc.edu
Pasadena	California	91125	99194 Onsgard Road	63875	Mason	Irene	1-(626)582-7378	imasonc8@sciencedirect.com	https://list-manage.com
Saint Augustine	Florida	32092	2 Buhler Trail	9836	Parker	Harold	1-(904)934-3607	hparkerc9@mapy.cz	https://gravatar.com
Pasadena	California	91109	7613 Wayridge Road	9	Diaz	Dorothy	1-(818)655-0643	ddiazca@naver.com	https://livejournal.com
Grand Rapids	Michigan	49544	5404 Jay Road	2	Wheeler	Doris	1-(616)154-3282	dwheelercb@parallels.com	https://netvibes.com
Glendale	California	91210	83115 Lawn Lane	6681	Williamson	Carolyn	1-(818)846-0121	cwilliamsoncc@nasa.gov	https://github.com
Grand Forks	North Dakota	58207	0 Mifflin Lane	475	Carroll	Benjamin	1-(701)747-3235	bcarrollcd@microsoft.com	http://indiegogo.com
Cincinnati	Ohio	45271	27 Hoepker Lane	56498	Roberts	Gerald	1-(513)268-0526	grobertsce@answers.com	https://patch.com
Louisville	Kentucky	40233	70 Fairview Circle	9474	Larson	Helen	1-(502)733-8442	hlarsoncf@businesswire.com	https://devhub.com
Saint Cloud	Minnesota	56398	5276 Prairie Rose Terrace	81082	Gonzalez	Larry	1-(320)325-7021	lgonzalezcg@skyrock.com	http://altervista.org
Jacksonville	Florida	32277	5 Loeprich Avenue	496	Roberts	George	1-(904)384-0993	grobertsch@soup.io	http://symantec.com
Cincinnati	Ohio	45218	459 Kinsman Circle	60270	Patterson	Anna	1-(513)471-9483	apattersonci@lulu.com	https://google.de
Glendale	Arizona	85311	16 Valley Edge Terrace	8677	Lawson	Carolyn	1-(602)984-5565	clawsoncj@wunderground.com	http://yale.edu
Oklahoma City	Oklahoma	73124	9787 Meadow Vale Hill	916	Hunter	Kathy	1-(405)930-3030	khunterck@4shared.com	http://spiegel.de
Ashburn	Virginia	22093	50 Vidon Center	69	Morrison	Katherine	1-(571)431-0341	kmorrisoncl@mapy.cz	https://mit.edu
Peoria	Illinois	61656	872 Doe Crossing Avenue	59	Carr	Christina	1-(309)485-8427	ccarrcm@foxnews.com	https://123-reg.co.uk
Montgomery	Alabama	36104	43 Del Mar Plaza	21	Miller	Kathy	1-(334)571-6270	kmillercn@ucsd.edu	https://phoca.cz
Seattle	Washington	98133	7 Delladonna Terrace	3	West	Nicholas	1-(425)976-8781	nwestco@angelfire.com	http://vimeo.com
Atlanta	Georgia	30323	7898 Westport Drive	5	Reid	Amy	1-(404)605-6208	areidcp@cornell.edu	http://google.cn
Lincoln	Nebraska	68510	6 Dapin Court	9875	Hill	Randy	1-(402)796-2201	rhillcq@cnet.com	http://instagram.com
Erie	Pennsylvania	16522	1706 Prairieview Parkway	64	Miller	Lori	1-(814)410-0535	lmillercr@sogou.com	https://adobe.com
Washington	District of Columbia	20010	2654 Hintze Way	254	Harvey	Angela	1-(202)411-2509	aharveycs@netvibes.com	https://amazon.de
Carol Stream	Illinois	60351	8504 North Trail	4	Bradley	Carlos	1-(309)873-4194	cbradleyct@ucoz.com	https://domainmarket.com
Everett	Washington	98206	035 Service Junction	023	Medina	Judy	1-(425)440-4458	jmedinacu@drupal.org	https://nifty.com
San Antonio	Texas	78265	967 Anderson Park	7490	Franklin	Jean	1-(210)741-5906	jfranklincv@studiopress.com	https://addtoany.com
Montgomery	Alabama	36125	0781 Sullivan Junction	5751	Kim	Michael	1-(334)253-4059	mkimcw@jalbum.net	https://over-blog.com
Baton Rouge	Louisiana	70815	4350 Iowa Parkway	54	Thompson	Ernest	1-(225)218-2120	ethompsoncx@businessinsider.com	http://infoseek.co.jp
Hagerstown	Maryland	21747	4147 West Point	38301	Myers	Kathleen	1-(240)572-1516	kmyerscy@prweb.com	https://reverbnation.com
Oakland	California	94616	6 Meadow Vale Hill	6	Roberts	Joyce	1-(415)438-8256	jrobertscz@163.com	http://cbc.ca
Chesapeake	Virginia	23324	0723 6th Way	64	Knight	Mildred	1-(757)364-8726	mknightd0@last.fm	https://ezinearticles.com
Hartford	Connecticut	06120	0241 Anzinger Center	76	Walker	Angela	1-(860)862-7295	awalkerd1@ocn.ne.jp	https://uol.com.br
Gaithersburg	Maryland	20883	3062 Roxbury Plaza	630	Perry	Howard	1-(240)521-3583	hperryd2@woothemes.com	https://tuttocitta.it
Kansas City	Missouri	64187	677 Continental Hill	10	Ray	Gregory	1-(816)113-6367	grayd3@nationalgeographic.com	http://sbwire.com
Las Vegas	Nevada	89193	34 Westerfield Plaza	7134	Henry	Judy	1-(702)415-0821	jhenryd4@com.com	https://about.com
Saint Petersburg	Florida	33731	1 Bultman Drive	47244	Fox	Pamela	1-(727)893-0679	pfoxd5@simplemachines.org	http://delicious.com
Washington	District of Columbia	20005	8 Dennis Hill	07	Sims	Rachel	1-(202)858-5628	rsimsd6@fema.gov	http://yahoo.com
Kansas City	Missouri	64160	617 Graedel Hill	1238	Schmidt	Brian	1-(816)694-8875	bschmidtd7@alibaba.com	https://ucoz.ru
Davenport	Iowa	52809	8 Claremont Street	72	Rice	Thomas	1-(563)790-2443	triced8@nytimes.com	https://redcross.org
Honolulu	Hawaii	96850	93 Buhler Plaza	0682	Long	Earl	1-(808)712-9337	elongd9@theatlantic.com	https://wsj.com
Detroit	Michigan	48242	1572 Florence Center	73	Reed	Steve	1-(248)135-6381	sreedda@blog.com	https://blinklist.com
Englewood	Colorado	80150	29 Knutson Street	70744	Matthews	Judy	1-(303)465-4594	jmatthewsdb@symantec.com	https://vimeo.com
Asheville	North Carolina	28815	5426 Stuart Circle	7	Gordon	Debra	1-(828)593-3966	dgordondc@surveymonkey.com	https://xinhuanet.com
Silver Spring	Maryland	20910	4 Forest Center	425	Alvarez	Mildred	1-(202)717-0852	malvarezdd@last.fm	https://va.gov
Evansville	Indiana	47737	104 Logan Circle	3	Hawkins	Janice	1-(812)766-3497	jhawkinsde@skype.com	http://cam.ac.uk
Fort Wayne	Indiana	46805	2642 Thierer Point	63009	Jordan	Martha	1-(260)655-4581	mjordandf@webnode.com	http://cloudflare.com
El Paso	Texas	79955	702 Pepper Wood Hill	6	Hart	Lisa	1-(915)582-9248	lhartdg@cbsnews.com	http://fotki.com
Everett	Washington	98206	64 Gale Hill	52191	Mason	Gary	1-(425)483-5307	gmasondh@marriott.com	https://mlb.com
Spokane	Washington	99210	7 Charing Cross Parkway	0094	Dunn	Christopher	1-(509)493-2350	cdunndi@amazon.com	http://fotki.com
Phoenix	Arizona	85045	53 Stoughton Avenue	6	Black	Janet	1-(480)840-7215	jblackdj@ow.ly	http://reddit.com
Houston	Texas	77085	332 Grim Hill	15	Larson	Kathryn	1-(713)249-8078	klarsondk@mozilla.com	https://sciencedirect.com
Riverside	California	92505	45456 Alpine Avenue	22	Morales	Howard	1-(909)225-2848	hmoralesdl@over-blog.com	http://aol.com
Terre Haute	Indiana	47812	064 Knutson Trail	2226	Rose	Shirley	1-(812)621-2262	srosedm@weebly.com	https://stanford.edu
Peoria	Illinois	61640	76231 Browning Hill	1006	Kelly	Daniel	1-(309)134-7651	dkellydn@noaa.gov	http://dagondesign.com
Roanoke	Virginia	24024	13 Summerview Lane	37	Adams	Barbara	1-(540)127-5000	badamsdo@toplist.cz	https://uiuc.edu
San Diego	California	92191	5 Warbler Drive	38299	Cook	Jose	1-(619)647-2269	jcookdp@va.gov	https://imdb.com
Lexington	Kentucky	40546	695 Montana Drive	868	Howell	Frances	1-(859)530-6762	fhowelldq@hibu.com	https://amazon.co.jp
San Antonio	Texas	78215	5051 Roth Street	06	Simpson	Karen	1-(210)102-1779	ksimpsondr@yellowpages.com	http://hexun.com
Corpus Christi	Texas	78415	214 Dennis Place	2439	Barnes	Philip	1-(361)412-8810	pbarnesds@google.pl	http://phpbb.com
Littleton	Colorado	80161	1526 Dorton Way	57	Flores	Bruce	1-(720)292-7394	bfloresdt@chronoengine.com	https://lycos.com
Englewood	Colorado	80150	74701 Hanson Way	59	Long	Louis	1-(303)114-2014	llongdu@mail.ru	http://cisco.com
Trenton	New Jersey	08650	0 Fieldstone Drive	663	Wright	Theresa	1-(609)128-7275	twrightdv@sourceforge.net	https://ustream.tv
San Antonio	Texas	78205	6288 6th Point	802	Cook	Juan	1-(210)489-5355	jcookdw@last.fm	https://epa.gov
Memphis	Tennessee	38197	38569 Norway Maple Drive	39863	Smith	Dorothy	1-(901)515-5826	dsmithdx@ycombinator.com	https://rambler.ru
New York City	New York	10019	346 Dexter Circle	937	Oliver	Louise	1-(212)390-1213	loliverdy@goo.ne.jp	https://mozilla.com
Des Moines	Iowa	50362	5194 Menomonie Pass	329	Lawson	Alice	1-(515)187-1736	alawsondz@webnode.com	http://csmonitor.com
Las Vegas	Nevada	89135	3101 Truax Place	2	Willis	Adam	1-(702)207-7719	awillise0@scribd.com	http://army.mil
Fort Worth	Texas	76178	7849 Anzinger Avenue	4931	Green	Steven	1-(682)253-7139	sgreene1@imageshack.us	http://mozilla.com
Phoenix	Arizona	85099	171 Ryan Point	844	Sanchez	Stephanie	1-(602)332-8400	ssancheze2@prlog.org	http://wsj.com
Chattanooga	Tennessee	37405	9973 Dayton Terrace	512	Perkins	Andrea	1-(423)183-6901	aperkinse3@flavors.me	http://walmart.com
Jacksonville	Florida	32236	1 Holmberg Avenue	558	Montgomery	Marilyn	1-(904)361-9287	mmontgomerye4@google.com	https://senate.gov
Jacksonville	Florida	32230	95950 Fremont Parkway	6	Tucker	Jose	1-(904)928-8721	jtuckere5@nasa.gov	http://naver.com
Saint Louis	Missouri	63143	54 Fisk Trail	38957	Green	Sean	1-(314)465-5501	sgreene6@facebook.com	https://people.com.cn
Syracuse	New York	13210	95 Sugar Plaza	60	Warren	Fred	1-(315)987-6327	fwarrene7@dell.com	http://github.com
West Palm Beach	Florida	33416	06 Mockingbird Parkway	977	Washington	Martha	1-(561)504-7208	mwashingtone8@wisc.edu	http://goodreads.com
Washington	District of Columbia	20580	7 Mandrake Trail	77	Hicks	Evelyn	1-(202)180-2171	ehickse9@marriott.com	http://vkontakte.ru
Miami	Florida	33175	38 Lyons Drive	3	Griffin	Carlos	1-(305)950-9769	cgriffinea@hp.com	http://blogtalkradio.com
Washington	District of Columbia	20078	982 Pine View Avenue	36	Hunter	Samuel	1-(202)106-5210	shuntereb@eepurl.com	https://friendfeed.com
Flushing	New York	11388	8272 Village Street	8	Freeman	Robert	1-(917)711-6792	rfreemanec@fc2.com	https://go.com
Washington	District of Columbia	20260	54 Lyons Road	72	Perkins	Jean	1-(202)927-0766	jperkinsed@ning.com	http://com.com
Milwaukee	Wisconsin	53263	405 Grasskamp Alley	24529	Hunter	Todd	1-(414)313-3540	thunteree@cloudflare.com	https://ning.com
Omaha	Nebraska	68134	53 Claremont Lane	8	Watson	Cheryl	1-(712)775-5393	cwatsonef@clickbank.net	https://sina.com.cn
Plano	Texas	75074	1 Claremont Hill	8	Wagner	Deborah	1-(469)892-5566	dwagnereg@parallels.com	http://wisc.edu
Detroit	Michigan	48206	83297 Maple Wood Street	85	Lynch	Eugene	1-(313)450-7878	elyncheh@cnn.com	http://bbc.co.uk
Sacramento	California	94230	2 Michigan Lane	3	Roberts	Melissa	1-(916)478-8217	mrobertsei@guardian.co.uk	https://gnu.org
Saint Louis	Missouri	63136	1059 Nevada Road	270	Allen	Kathryn	1-(314)264-5990	kallenej@pagesperso-orange.fr	https://google.pl
Springfield	Illinois	62756	8843 Crowley Avenue	53695	Kennedy	Chris	1-(217)506-3996	ckennedyek@addthis.com	https://smugmug.com
Rochester	New York	14652	2 Jana Court	6840	Simpson	Virginia	1-(585)655-8204	vsimpsonel@chronoengine.com	http://yellowbook.com
Tampa	Florida	33625	79999 Superior Avenue	77	Mendoza	Joan	1-(727)826-3034	jmendozaem@ebay.com	http://hao123.com
Jackson	Mississippi	39210	24511 Barnett Lane	66	Mcdonald	Christopher	1-(601)995-6933	cmcdonalden@state.gov	https://patch.com
Aiken	South Carolina	29805	17 Cordelia Center	19365	Black	Russell	1-(803)966-1723	rblackeo@constantcontact.com	http://wsj.com
Sparks	Nevada	89436	40 Delaware Avenue	5	Bennett	Helen	1-(775)528-9658	hbennettep@mail.ru	http://weibo.com
Buffalo	New York	14225	0 Bayside Pass	346	Lane	Lois	1-(716)924-3294	llaneeq@joomla.org	http://behance.net
Tulsa	Oklahoma	74184	0 Rieder Terrace	3383	Morris	Johnny	1-(918)955-3655	jmorriser@newyorker.com	https://cmu.edu
Washington	District of Columbia	20551	7 Bluejay Court	17488	Weaver	Cynthia	1-(202)763-5288	cweaveres@usnews.com	http://yahoo.com
Cleveland	Ohio	44185	213 Pearson Plaza	7	Gordon	James	1-(216)137-8298	jgordonet@eepurl.com	https://seattletimes.com
Pasadena	California	91186	17 Delaware Parkway	8626	Lawson	Samuel	1-(626)872-5913	slawsoneu@harvard.edu	http://salon.com
Boston	Massachusetts	02109	2 Hauk Terrace	6129	Hart	Michael	1-(617)792-6975	mhartev@theglobeandmail.com	http://ebay.co.uk
Fort Lauderdale	Florida	33325	90 Clemons Crossing	828	Murray	Steven	1-(954)380-4119	smurrayew@ameblo.jp	http://google.it
Durham	North Carolina	27717	799 Bunker Hill Plaza	76951	Vasquez	Fred	1-(919)822-6770	fvasquezex@printfriendly.com	http://sohu.com
Cincinnati	Ohio	45249	6 Saint Paul Park	6	Rogers	Janet	1-(513)355-2900	jrogersey@patch.com	http://washington.edu
Melbourne	Florida	32941	2498 Mallard Way	132	Ortiz	David	1-(321)899-4188	dortizez@spotify.com	https://chronoengine.com
Lynchburg	Virginia	24503	562 Harper Road	16030	Flores	Ronald	1-(434)367-1491	rfloresf0@barnesandnoble.com	https://sfgate.com
Houston	Texas	77271	8953 Barnett Crossing	22	Robertson	Anne	1-(713)495-7562	arobertsonf1@de.vu	http://storify.com
Charleston	West Virginia	25305	45653 Merry Terrace	65339	Morgan	Diana	1-(304)324-9930	dmorganf2@dmoz.org	http://prnewswire.com
Spring	Texas	77386	63751 Hoepker Avenue	05612	Owens	Evelyn	1-(832)397-8217	eowensf3@dell.com	http://is.gd
San Luis Obispo	California	93407	02565 Eagan Terrace	747	Romero	Diana	1-(805)825-8984	dromerof4@fc2.com	http://dmoz.org
New Hyde Park	New York	11044	32 Butterfield Point	4	Simmons	Christina	1-(516)677-7001	csimmonsf5@sogou.com	http://ocn.ne.jp
Scottsdale	Arizona	85260	0082 Oak Terrace	3218	Moreno	Julia	1-(602)497-2910	jmorenof6@time.com	http://elpais.com
Mobile	Alabama	36622	67 Helena Center	67778	Owens	Marie	1-(251)650-8339	mowensf7@e-recht24.de	https://tamu.edu
San Diego	California	92191	7050 Erie Center	1	Cruz	Annie	1-(619)629-9543	acruzf8@vistaprint.com	https://t.co
Baltimore	Maryland	21290	78088 Pearson Hill	354	Day	Gregory	1-(410)210-9240	gdayf9@si.edu	https://bloglovin.com
Carol Stream	Illinois	60351	4 Cody Point	4	Boyd	Christine	1-(309)500-9157	cboydfa@go.com	http://independent.co.uk
Portsmouth	New Hampshire	03804	69 Morningstar Avenue	02671	Fowler	Gerald	1-(603)504-6211	gfowlerfb@cbc.ca	https://studiopress.com
Ashburn	Virginia	22093	484 Park Meadow Plaza	36486	Price	Heather	1-(571)391-2835	hpricefc@sphinn.com	http://salon.com
Rochester	New York	14614	4141 Mesta Trail	9983	Peters	Justin	1-(315)412-1833	jpetersfd@uol.com.br	http://baidu.com
Albuquerque	New Mexico	87195	7909 Carioca Way	901	Romero	James	1-(505)742-9407	jromerofe@csmonitor.com	http://g.co
Baltimore	Maryland	21229	11 Anhalt Point	7	Kennedy	Roy	1-(443)973-4461	rkennedyff@cbslocal.com	https://shop-pro.jp
Lakewood	Washington	98498	30278 Oak Way	863	Bowman	Ann	1-(253)866-6600	abowmanfg@printfriendly.com	http://g.co
Miami	Florida	33147	60534 Doe Crossing Trail	149	Campbell	Anne	1-(305)742-9679	acampbellfh@marriott.com	http://dot.gov
Brooklyn	New York	11254	6 Anniversary Trail	4948	Wood	Chris	1-(212)928-9489	cwoodfi@amazon.co.jp	http://webnode.com
Dallas	Texas	75367	782 Killdeer Way	7386	Ross	Phyllis	1-(214)356-3982	prossfj@cam.ac.uk	http://i2i.jp
Milwaukee	Wisconsin	53225	97 Farwell Pass	156	Knight	Jessica	1-(414)320-2375	jknightfk@ezinearticles.com	https://networkadvertising.org
Charlotte	North Carolina	28205	86 Stephen Court	1	Barnes	Patricia	1-(704)870-6903	pbarnesfl@cargocollective.com	http://clickbank.net
Huntington	West Virginia	25770	541 Crownhardt Place	0172	Lawson	Peter	1-(304)653-8641	plawsonfm@huffingtonpost.com	http://xinhuanet.com
Chico	California	95973	50808 Tony Court	9808	Frazier	Nancy	1-(530)622-4058	nfrazierfn@liveinternet.ru	https://reverbnation.com
Nashville	Tennessee	37210	13 Garrison Alley	48848	Kim	Stephen	1-(615)460-1170	skimfo@webs.com	https://seesaa.net
Charlotte	North Carolina	28235	582 Anzinger Alley	75	Howell	Michael	1-(704)643-8193	mhowellfp@ow.ly	http://gizmodo.com
Seattle	Washington	98115	90282 Eastwood Pass	6	Roberts	Anne	1-(206)877-6622	arobertsfq@google.de	https://hhs.gov
Decatur	Georgia	30033	1 Kipling Court	20	Robertson	Kelly	1-(404)112-5508	krobertsonfr@youtu.be	https://github.com
San Francisco	California	94164	9137 Melvin Court	9	Fisher	Carol	1-(415)168-1909	cfisherfs@skype.com	http://kickstarter.com
Washington	District of Columbia	20430	0 Acker Court	384	Gilbert	Steve	1-(202)441-9872	sgilbertft@usnews.com	https://dailymail.co.uk
Orlando	Florida	32835	722 Laurel Point	334	Hall	Phillip	1-(321)519-7469	phallfu@multiply.com	http://nasa.gov
Atlanta	Georgia	30386	7398 Buell Way	35676	Weaver	Kenneth	1-(404)957-0012	kweaverfv@aol.com	https://chronoengine.com
Harrisburg	Pennsylvania	17105	21886 Karstens Hill	8383	Lawson	Roger	1-(717)288-6334	rlawsonfw@ow.ly	https://google.com.au
Washington	District of Columbia	20078	8345 Bunker Hill Street	0316	Hanson	Jack	1-(202)500-3265	jhansonfx@surveymonkey.com	http://sina.com.cn
Amarillo	Texas	79182	97070 Reindahl Circle	16499	Hart	Betty	1-(806)486-0820	bhartfy@toplist.cz	http://theguardian.com
Peoria	Illinois	61635	74972 Dixon Trail	18234	Williams	Jerry	1-(309)737-0494	jwilliamsfz@kickstarter.com	http://unicef.org
San Bernardino	California	92405	10 Autumn Leaf Point	9	Lane	Bobby	1-(909)322-9480	blaneg0@hatena.ne.jp	https://myspace.com
Philadelphia	Pennsylvania	19151	984 Superior Point	472	Hudson	Ruth	1-(610)755-0521	rhudsong1@slideshare.net	http://sohu.com
Dallas	Texas	75241	3116 Michigan Plaza	8808	Mitchell	Kenneth	1-(972)245-3525	kmitchellg2@canalblog.com	https://dailymail.co.uk
Denver	Colorado	80249	99 Thierer Street	2833	Snyder	Philip	1-(303)809-6279	psnyderg3@scribd.com	http://baidu.com
Tampa	Florida	33647	38 Division Trail	46779	Spencer	Christina	1-(813)320-2101	cspencerg4@tinyurl.com	https://geocities.com
Lake Worth	Florida	33467	73 Steensland Alley	829	Morris	Martin	1-(561)707-0297	mmorrisg5@domainmarket.com	https://marketwatch.com
Miami Beach	Florida	33141	011 Lotheville Park	516	Woods	Judith	1-(305)452-9722	jwoodsg6@moonfruit.com	http://reference.com
Buffalo	New York	14220	119 Jana Terrace	3714	Schmidt	Judy	1-(716)613-0145	jschmidtg7@comcast.net	https://storify.com
Des Moines	Iowa	50305	02321 Forster Street	60045	Morales	Julie	1-(515)817-3788	jmoralesg8@reuters.com	https://amazon.co.uk
Elmira	New York	14905	04 Vermont Point	7528	Henry	Julie	1-(607)200-1744	jhenryg9@archive.org	https://arizona.edu
Jacksonville	Florida	32277	7 Kingsford Street	78	Phillips	Doris	1-(904)821-3128	dphillipsga@liveinternet.ru	https://flavors.me
Charlotte	North Carolina	28225	4 Lighthouse Bay Crossing	4	Stevens	Patricia	1-(704)803-5467	pstevensgb@noaa.gov	http://xrea.com
Seattle	Washington	98121	5 Old Gate Drive	11	Stone	Gary	1-(253)823-8705	gstonegc@theatlantic.com	https://loc.gov
Philadelphia	Pennsylvania	19120	056 Kipling Street	4	Smith	Ernest	1-(610)756-2571	esmithgd@tuttocitta.it	http://eventbrite.com
Jamaica	New York	11436	91768 Melrose Avenue	2	Johnston	Gloria	1-(718)952-8142	gjohnstonge@bloglovin.com	http://youtube.com
Salt Lake City	Utah	84115	2 Northland Road	14126	Lopez	Patrick	1-(801)107-1583	plopezgf@arizona.edu	http://sun.com
Honolulu	Hawaii	96810	55 Crest Line Junction	8	Washington	Deborah	1-(808)298-7974	dwashingtongg@hatena.ne.jp	http://umich.edu
Portland	Oregon	97211	962 Westridge Place	770	Nguyen	Fred	1-(503)476-6445	fnguyengh@istockphoto.com	https://economist.com
Memphis	Tennessee	38188	255 Farwell Terrace	5	Bell	Raymond	1-(901)107-6644	rbellgi@g.co	https://slideshare.net
San Diego	California	92191	70 6th Way	882	Davis	Douglas	1-(619)934-5700	ddavisgj@wikipedia.org	https://scientificamerican.com
Las Vegas	Nevada	89178	99 Waubesa Plaza	6	Miller	Sara	1-(702)755-5791	smillergk@chronoengine.com	http://harvard.edu
San Diego	California	92145	0387 Fordem Point	616	Martinez	Victor	1-(619)828-5531	vmartinezgl@live.com	http://newyorker.com
Richmond	Virginia	23228	35964 Summer Ridge Way	14	Bishop	Doris	1-(804)220-2188	dbishopgm@google.com.br	https://google.com.hk
Lincoln	Nebraska	68583	4 Autumn Leaf Circle	1172	Johnston	Harold	1-(402)396-8584	hjohnstongn@macromedia.com	http://artisteer.com
Daytona Beach	Florida	32118	980 Ludington Way	21	Ross	Richard	1-(386)396-5305	rrossgo@wikimedia.org	https://about.me
Wilmington	Delaware	19805	5551 Fallview Pass	9	Lane	Diane	1-(302)823-0337	dlanegp@wikia.com	http://businessweek.com
Beaufort	South Carolina	29905	25528 Crownhardt Junction	78	James	Timothy	1-(843)481-0728	tjamesgq@earthlink.net	http://census.gov
Metairie	Louisiana	70005	6 Buhler Junction	74183	Butler	Terry	1-(504)152-3317	tbutlergr@uiuc.edu	https://oakley.com
Kansas City	Missouri	64187	8 Grover Crossing	46	Nichols	Angela	1-(816)949-9038	anicholsgs@elegantthemes.com	https://usgs.gov
Chicago	Illinois	60624	841 Homewood Road	6	Grant	Gary	1-(773)233-4416	ggrantgt@comsenz.com	http://berkeley.edu
Fresno	California	93740	54 Armistice Trail	2898	Perry	Lawrence	1-(559)115-7418	lperrygu@springer.com	http://nyu.edu
Fresno	California	93715	500 Prentice Trail	9	Wagner	Laura	1-(209)256-3546	lwagnergv@biglobe.ne.jp	http://geocities.com
Washington	District of Columbia	20414	38825 Fordem Plaza	8	Chavez	Bonnie	1-(202)505-8768	bchavezgw@jigsy.com	https://pinterest.com
Indianapolis	Indiana	46231	9 Marcy Avenue	1	Collins	Teresa	1-(317)620-0996	tcollinsgx@patch.com	http://guardian.co.uk
Charlotte	North Carolina	28210	90 Surrey Point	68221	Thomas	Aaron	1-(704)111-9656	athomasgy@mapquest.com	https://google.es
Minneapolis	Minnesota	55458	7 Tony Plaza	1	Richardson	Louise	1-(612)449-1360	lrichardsongz@about.me	http://indiatimes.com
Atlanta	Georgia	30340	45 Bultman Circle	0	Owens	Jennifer	1-(678)318-3578	jowensh0@creativecommons.org	https://altervista.org
Nashville	Tennessee	37235	74 8th Plaza	1	Gonzalez	Lillian	1-(615)146-9801	lgonzalezh1@amazon.co.jp	http://bloomberg.com
Lubbock	Texas	79415	98514 Eggendart Road	61659	Mason	Ann	1-(806)744-4147	amasonh2@narod.ru	https://spotify.com
Pensacola	Florida	32590	13 Main Alley	148	Cruz	Pamela	1-(850)627-0933	pcruzh3@redcross.org	https://printfriendly.com
San Bernardino	California	92410	6215 Bluestem Terrace	714	Mason	Jacqueline	1-(909)949-3717	jmasonh4@macromedia.com	http://slate.com
Washington	District of Columbia	20016	5288 Village Green Street	22	Lopez	Jesse	1-(202)535-6422	jlopezh5@linkedin.com	https://gov.uk
Rochester	New York	14652	002 Cardinal Road	56	Harris	Sean	1-(585)387-8546	sharrish6@ezinearticles.com	https://harvard.edu
Sacramento	California	95833	25998 Union Center	67	Garrett	Julia	1-(530)891-5190	jgarretth7@ucla.edu	https://live.com
Norfolk	Virginia	23514	32642 Hanson Hill	623	Fisher	Samuel	1-(757)459-0899	sfisherh8@goo.gl	http://360.cn
Montgomery	Alabama	36114	64 Judy Pass	07051	Nichols	Beverly	1-(334)344-8610	bnicholsh9@soup.io	http://kickstarter.com
Wilmington	Delaware	19886	18 Sutteridge Center	05277	Garcia	Kelly	1-(302)379-1975	kgarciaha@moonfruit.com	http://hhs.gov
San Antonio	Texas	78240	91 Shopko Place	8	Marshall	Patrick	1-(210)193-6932	pmarshallhb@google.de	http://mashable.com
Atlanta	Georgia	30380	671 West Junction	81	Allen	Matthew	1-(404)166-9274	mallenhc@weebly.com	https://t-online.de
Trenton	New Jersey	08695	0479 Parkside Pass	6	Kennedy	Steven	1-(609)756-3266	skennedyhd@gravatar.com	https://goodreads.com
Alexandria	Virginia	22333	8636 Porter Parkway	92150	Richardson	Craig	1-(571)789-5825	crichardsonhe@senate.gov	http://ebay.co.uk
Oklahoma City	Oklahoma	73179	192 Summer Ridge Parkway	0	Lee	Joseph	1-(405)745-3542	jleehf@wired.com	http://hexun.com
Denver	Colorado	80291	20 Rieder Pass	7	Kelley	Maria	1-(303)429-8627	mkelleyhg@usnews.com	http://nytimes.com
New York City	New York	10249	1 Bashford Drive	67418	Willis	Andrea	1-(212)269-1961	awillishh@twitter.com	https://live.com
Philadelphia	Pennsylvania	19141	7 Doe Crossing Court	92942	Baker	William	1-(215)297-1487	wbakerhi@is.gd	https://discuz.net
Peoria	Illinois	61629	15985 Rutledge Pass	6195	Ross	Stephanie	1-(309)494-9841	srosshj@google.co.jp	http://prnewswire.com
Pittsburgh	Pennsylvania	15220	959 Boyd Plaza	3635	Williams	Johnny	1-(412)952-9351	jwilliamshk@uol.com.br	http://jalbum.net
Irving	Texas	75062	3 Vernon Drive	685	Foster	Jerry	1-(214)334-5851	jfosterhl@bloglines.com	https://webs.com
Lexington	Kentucky	40510	30 Eastwood Way	5708	Simpson	Lillian	1-(859)183-9522	lsimpsonhm@nasa.gov	https://marketwatch.com
Lexington	Kentucky	40524	6 Schlimgen Way	0	Fernandez	Robert	1-(859)855-4602	rfernandezhn@posterous.com	http://ted.com
Houston	Texas	77090	8394 Spohn Point	0	Austin	Nicole	1-(713)760-1853	naustinho@google.de	https://about.me
Flushing	New York	11388	2130 Bashford Point	05676	Coleman	Nicholas	1-(917)407-1860	ncolemanhp@yahoo.co.jp	http://histats.com
Oklahoma City	Oklahoma	73114	8 Northview Avenue	04	Cook	Denise	1-(405)193-5754	dcookhq@nifty.com	http://networksolutions.com
Cincinnati	Ohio	45228	75 Fair Oaks Park	39572	Griffin	Carol	1-(513)706-0045	cgriffinhr@patch.com	https://accuweather.com
Carol Stream	Illinois	60351	989 Hauk Point	69	Rose	Earl	1-(309)885-3082	erosehs@google.co.jp	http://nature.com
Harrisburg	Pennsylvania	17126	48554 Heath Street	6	Gomez	Theresa	1-(717)643-2631	tgomezht@acquirethisname.com	https://google.nl
Houston	Texas	77299	28 Green Alley	270	Parker	Marie	1-(713)217-8446	mparkerhu@creativecommons.org	https://liveinternet.ru
Boston	Massachusetts	02216	309 5th Alley	35	Greene	Alan	1-(617)555-5223	agreenehv@gravatar.com	https://ovh.net
Greensboro	North Carolina	27499	72464 Rusk Hill	91946	Kelley	James	1-(336)285-6613	jkelleyhw@bbc.co.uk	https://answers.com
Springfield	Illinois	62776	63102 Porter Drive	8	Russell	Linda	1-(217)562-0458	lrussellhx@nationalgeographic.com	http://ed.gov
New York City	New York	10110	223 Marquette Street	70	Little	Ralph	1-(718)116-3215	rlittlehy@hhs.gov	https://va.gov
Gainesville	Georgia	30506	69 Mockingbird Park	940	Lawson	Brandon	1-(678)823-0134	blawsonhz@google.com.hk	https://ibm.com
Cincinnati	Ohio	45228	4488 Randy Point	00048	Banks	Louise	1-(513)800-4077	lbanksi0@godaddy.com	https://studiopress.com
Anchorage	Alaska	99522	3162 Harbort Alley	8	Frazier	Steven	1-(907)910-7011	sfrazieri1@ca.gov	http://dot.gov
Oklahoma City	Oklahoma	73173	79619 Lindbergh Trail	5	Hayes	Michael	1-(405)887-1202	mhayesi2@constantcontact.com	http://virginia.edu
Pasadena	California	91117	3644 Esch Circle	325	Washington	Kimberly	1-(626)858-5074	kwashingtoni3@github.io	https://netscape.com
Bronx	New York	10459	15 Ohio Circle	3597	Cole	Joyce	1-(917)517-0577	jcolei4@apple.com	http://princeton.edu
Hampton	Virginia	23663	4615 Stone Corner Park	07	Pierce	Clarence	1-(804)846-3953	cpiercei5@cdc.gov	https://google.pl
Brooklyn	New York	11205	882 Alpine Avenue	167	King	Laura	1-(646)493-7095	lkingi6@wikia.com	https://si.edu
Gilbert	Arizona	85297	5063 Oneill Lane	467	Baker	Sean	1-(602)483-8817	sbakeri7@chicagotribune.com	http://marketwatch.com
Fresno	California	93794	8990 2nd Circle	5995	Kelley	Gary	1-(559)237-3799	gkelleyi8@army.mil	http://addtoany.com
Minneapolis	Minnesota	55428	8 Lawn Crossing	54	Fernandez	Diana	1-(612)810-3336	dfernandezi9@dmoz.org	https://friendfeed.com
Des Moines	Iowa	50330	672 Waywood Way	2562	Johnston	Chris	1-(515)488-0339	cjohnstonia@booking.com	http://topsy.com
Odessa	Texas	79764	1 Dennis Terrace	3514	Carr	Kathy	1-(432)715-0911	kcarrib@guardian.co.uk	http://cnet.com
Boston	Massachusetts	02298	60 Spaight Plaza	9683	Reynolds	Joseph	1-(617)738-9062	jreynoldsic@aboutads.info	http://jugem.jp
Chicago	Illinois	60619	746 Lakewood Way	08230	Hunt	Lori	1-(312)531-9579	lhuntid@yelp.com	https://sogou.com
Raleigh	North Carolina	27615	1090 Sherman Way	3694	Reid	Wanda	1-(919)228-9614	wreidie@amazon.com	https://theguardian.com
Washington	District of Columbia	20436	6530 Scoville Point	359	Day	Doris	1-(202)255-0663	ddayif@rakuten.co.jp	https://unesco.org
Dallas	Texas	75342	6011 East Drive	1	Price	Paula	1-(972)228-5568	ppriceig@paginegialle.it	http://mapquest.com
Boca Raton	Florida	33432	5023 Graedel Street	53	Hawkins	Shawn	1-(954)212-9948	shawkinsih@who.int	http://twitter.com
Denver	Colorado	80291	2 Melby Park	5744	Bishop	Sandra	1-(303)813-4671	sbishopii@technorati.com	http://unc.edu
Memphis	Tennessee	38168	60367 Anderson Drive	5152	Shaw	David	1-(901)192-9423	dshawij@bloomberg.com	http://washingtonpost.com
Fayetteville	North Carolina	28314	42 Hazelcrest Alley	2	Johnson	William	1-(910)427-1118	wjohnsonik@newsvine.com	http://mashable.com
El Paso	Texas	79945	20288 Eagle Crest Plaza	9	Owens	Randy	1-(915)515-0044	rowensil@blogger.com	http://parallels.com
Wichita	Kansas	67236	852 Petterle Point	679	Wallace	Bruce	1-(316)785-0570	bwallaceim@barnesandnoble.com	https://hao123.com
Charlotte	North Carolina	28272	92 Green Crossing	6826	Spencer	Denise	1-(704)936-2838	dspencerin@nifty.com	https://so-net.ne.jp
Hartford	Connecticut	06145	1 Hintze Circle	1	Hanson	Sarah	1-(860)910-8371	shansonio@free.fr	https://pagesperso-orange.fr
Nashville	Tennessee	37205	71 Meadow Ridge Parkway	23463	Payne	Maria	1-(615)958-8983	mpayneip@reddit.com	http://nsw.gov.au
Tampa	Florida	33661	55 Morning Court	2242	Graham	Daniel	1-(813)747-2612	dgrahamiq@ted.com	https://tmall.com
Richmond	Virginia	23285	555 Brentwood Alley	15962	Murphy	Beverly	1-(804)803-5621	bmurphyir@typepad.com	http://cornell.edu
Tulsa	Oklahoma	74170	3272 Northland Court	34	Banks	Patrick	1-(918)827-0745	pbanksis@ning.com	https://uol.com.br
Fort Worth	Texas	76192	7 Grover Court	77	Morales	Maria	1-(682)676-3125	mmoralesit@independent.co.uk	https://archive.org
Kansas City	Missouri	64190	5590 Schlimgen Terrace	6751	Reid	Laura	1-(816)397-5942	lreidiu@furl.net	https://state.tx.us
Philadelphia	Pennsylvania	19115	57966 Moulton Way	1416	Matthews	Robert	1-(215)276-9547	rmatthewsiv@clickbank.net	https://over-blog.com
Reston	Virginia	22096	170 Green Street	433	Garrett	Evelyn	1-(571)641-9531	egarrettiw@friendfeed.com	http://wisc.edu
Mansfield	Ohio	44905	47378 Arkansas Junction	27531	Owens	Martha	1-(419)664-1439	mowensix@deliciousdays.com	http://vimeo.com
Charlotte	North Carolina	28235	650 Dexter Plaza	958	Meyer	Juan	1-(704)509-8488	jmeyeriy@oaic.gov.au	http://dedecms.com
El Paso	Texas	88563	8427 Clyde Gallagher Pass	442	Alvarez	Stephanie	1-(915)221-6234	salvareziz@xing.com	https://shareasale.com
Fort Lauderdale	Florida	33320	3748 Saint Paul Court	61	Peters	Dennis	1-(754)109-2621	dpetersj0@nymag.com	http://washington.edu
Dallas	Texas	75265	13 Gale Place	73	Ramos	Matthew	1-(214)331-9257	mramosj1@mapquest.com	http://booking.com
Huntington	West Virginia	25705	7458 Cottonwood Way	738	Ward	Ernest	1-(304)422-6743	ewardj2@hp.com	http://mayoclinic.com
Fort Worth	Texas	76162	352 Manitowish Drive	0	Wagner	Jean	1-(682)956-5352	jwagnerj3@homestead.com	http://4shared.com
El Paso	Texas	88584	14729 Sachs Street	95	Jacobs	Heather	1-(915)173-6881	hjacobsj4@blogs.com	http://theatlantic.com
Kansas City	Missouri	64114	12 Pawling Street	03	Howard	Ronald	1-(816)667-1525	rhowardj5@nifty.com	http://irs.gov
San Jose	California	95113	62 Mitchell Hill	7	Gomez	Michael	1-(650)438-5669	mgomezj6@instagram.com	http://t.co
Daytona Beach	Florida	32123	098 Texas Center	62574	Howell	Eugene	1-(386)655-7592	ehowellj7@miitbeian.gov.cn	https://google.ru
Los Angeles	California	90094	9774 3rd Alley	10	Vasquez	Carlos	1-(323)801-5650	cvasquezj8@accuweather.com	http://netvibes.com
San Francisco	California	94110	7 Corscot Lane	198	Foster	Julia	1-(415)771-7742	jfosterj9@homestead.com	https://last.fm
Roanoke	Virginia	24014	36460 Longview Point	2406	Carpenter	Kimberly	1-(540)462-0707	kcarpenterja@harvard.edu	https://china.com.cn
Minneapolis	Minnesota	55407	2 7th Road	4	Lawson	Angela	1-(952)897-0085	alawsonjb@buzzfeed.com	https://domainmarket.com
Erie	Pennsylvania	16510	27993 Hudson Way	917	Simpson	Joseph	1-(814)701-0982	jsimpsonjc@dailymotion.com	https://indiegogo.com
Dallas	Texas	75397	1852 Bultman Way	32876	Olson	Carolyn	1-(214)104-5654	colsonjd@examiner.com	https://omniture.com
Newark	New Jersey	07188	4 2nd Street	54291	Hansen	George	1-(862)655-1850	ghansenje@gizmodo.com	http://usnews.com
Des Moines	Iowa	50936	05671 Blaine Plaza	2380	Dean	Todd	1-(515)358-6357	tdeanjf@wix.com	https://ibm.com
Roanoke	Virginia	24034	41 Dunning Court	9984	Payne	Brandon	1-(540)224-9695	bpaynejg@wix.com	https://abc.net.au
Salt Lake City	Utah	84145	3 Pepper Wood Parkway	6	Carr	Eric	1-(801)636-5170	ecarrjh@si.edu	http://engadget.com
Bakersfield	California	93311	07 Transport Center	63982	Rodriguez	Raymond	1-(661)417-9582	rrodriguezji@bravesites.com	https://theatlantic.com
White Plains	New York	10633	9 Sunbrook Pass	7637	Wheeler	Bonnie	1-(845)496-0726	bwheelerjj@engadget.com	http://nsw.gov.au
Peoria	Arizona	85383	76315 Huxley Trail	8100	Cox	Shawn	1-(928)661-2153	scoxjk@upenn.edu	https://va.gov
Austin	Texas	78737	17 Clyde Gallagher Trail	86	Carr	Fred	1-(512)495-3725	fcarrjl@comcast.net	http://jiathis.com
Kansas City	Missouri	64136	5096 Iowa Avenue	476	Wilson	Harry	1-(816)461-9924	hwilsonjm@google.co.jp	http://usatoday.com
Lincoln	Nebraska	68531	962 Bayside Road	506	Morrison	Eric	1-(402)988-8087	emorrisonjn@imgur.com	https://wikipedia.org
Washington	District of Columbia	20022	8 Mendota Hill	10	Grant	Kevin	1-(202)707-0974	kgrantjo@hhs.gov	https://sakura.ne.jp
Omaha	Nebraska	68144	23824 Knutson Drive	5038	Robertson	Christine	1-(402)847-5440	crobertsonjp@ning.com	http://thetimes.co.uk
Dayton	Ohio	45419	15 Sommers Alley	8	Duncan	Carolyn	1-(937)444-7731	cduncanjq@cloudflare.com	http://miibeian.gov.cn
Los Angeles	California	90040	47 Meadow Vale Plaza	76225	Hernandez	Jerry	1-(760)664-0144	jhernandezjr@dropbox.com	https://abc.net.au
Terre Haute	Indiana	47805	2 Manitowish Alley	0008	Fernandez	Arthur	1-(812)420-0957	afernandezjs@github.com	http://hhs.gov
San Francisco	California	94164	7603 Lillian Place	62193	Gibson	Jeremy	1-(415)875-6304	jgibsonjt@jiathis.com	https://qq.com
Danbury	Connecticut	06816	75 Ohio Place	6	Cunningham	Jane	1-(203)222-6568	jcunninghamju@tinyurl.com	http://multiply.com
Little Rock	Arkansas	72222	55 Knutson Trail	1229	Reed	Lois	1-(501)377-2431	lreedjv@google.de	https://newyorker.com
Fort Lauderdale	Florida	33345	593 Meadow Vale Place	9655	Dunn	Wanda	1-(754)699-9856	wdunnjw@php.net	https://gnu.org
Austin	Texas	78769	53 Mitchell Way	56	Ruiz	Joe	1-(512)155-9239	jruizjx@baidu.com	https://stumbleupon.com
Milwaukee	Wisconsin	53234	32103 Kingsford Lane	2647	Romero	Stephanie	1-(414)287-8416	sromerojy@blogs.com	http://shinystat.com
Houston	Texas	77218	2521 Straubel Parkway	97801	Burns	Billy	1-(713)415-0431	bburnsjz@bravesites.com	http://pen.io
Albuquerque	New Mexico	87201	10 Lakeland Pass	246	Wright	Steve	1-(505)451-7042	swrightk0@cdc.gov	http://baidu.com
Cleveland	Ohio	44177	62574 Comanche Way	563	Owens	Andrea	1-(440)922-9745	aowensk1@abc.net.au	https://pagesperso-orange.fr
Springfield	Illinois	62711	44 Homewood Hill	60	Lane	Ryan	1-(217)288-5895	rlanek2@foxnews.com	https://eepurl.com
Cheyenne	Wyoming	82007	978 Service Lane	5	Kelly	Lori	1-(307)420-4184	lkellyk3@cbc.ca	https://networkadvertising.org
Lancaster	California	93584	56058 Schmedeman Parkway	98	Wagner	Doris	1-(661)932-5484	dwagnerk4@cbslocal.com	https://opensource.org
Honolulu	Hawaii	96850	6 Texas Place	1	Myers	Daniel	1-(808)921-2219	dmyersk5@census.gov	https://diigo.com
Charlotte	North Carolina	28247	39 Lawn Avenue	92	Elliott	Tammy	1-(704)449-6810	telliottk6@about.com	https://zimbio.com
Des Moines	Iowa	50393	41471 Evergreen Road	82	Murphy	Jerry	1-(515)469-5984	jmurphyk7@github.io	https://independent.co.uk
Chicago	Illinois	60652	37734 Hoffman Way	81	Jenkins	Pamela	1-(773)718-5274	pjenkinsk8@state.gov	https://nih.gov
Columbus	Ohio	43210	28831 Warbler Road	871	Burton	Johnny	1-(614)759-1191	jburtonk9@comcast.net	http://altervista.org
Atlanta	Georgia	30380	738 Iowa Junction	894	Crawford	Keith	1-(404)789-3435	kcrawfordka@aol.com	http://delicious.com
Cleveland	Ohio	44185	34708 Mitchell Park	93	Bowman	Carolyn	1-(216)915-5925	cbowmankb@studiopress.com	https://epa.gov
Madison	Wisconsin	53716	271 Fordem Drive	5	Lewis	Norma	1-(608)701-4016	nlewiskc@com.com	http://hao123.com
Santa Barbara	California	93150	1247 Hovde Court	48782	Lawson	Joseph	1-(805)969-4412	jlawsonkd@noaa.gov	http://imgur.com
San Antonio	Texas	78278	4 Sullivan Place	04	Olson	Jean	1-(210)450-4024	jolsonke@noaa.gov	http://sitemeter.com
Huntington	West Virginia	25721	16718 Quincy Drive	03	Gonzalez	Willie	1-(304)699-4130	wgonzalezkf@oakley.com	https://homestead.com
Honolulu	Hawaii	96820	022 Talisman Junction	25437	Griffin	Ronald	1-(808)155-1986	rgriffinkg@smh.com.au	http://home.pl
Milwaukee	Wisconsin	53225	38855 Warner Pass	3867	Thomas	Joseph	1-(414)418-3097	jthomaskh@ow.ly	http://msu.edu
Greenville	South Carolina	29610	06 North Crossing	840	Meyer	Eric	1-(864)728-1619	emeyerki@github.com	https://prlog.org
Waterbury	Connecticut	06721	35 Bashford Lane	29596	Burns	Carolyn	1-(203)627-0715	cburnskj@jigsy.com	https://wordpress.org
Las Vegas	Nevada	89105	0429 Del Sol Point	0	Castillo	Sarah	1-(702)152-9624	scastillokk@w3.org	https://constantcontact.com
Sterling	Virginia	20167	0 Prentice Road	792	Ellis	Larry	1-(571)345-4806	lelliskl@aol.com	https://wisc.edu
Colorado Springs	Colorado	80925	40774 Mosinee Center	7	Gonzales	Diana	1-(719)771-1067	dgonzaleskm@networkadvertising.org	https://sciencedaily.com
Watertown	Massachusetts	02472	870 Sauthoff Parkway	3	Porter	Rose	1-(857)403-9276	rporterkn@google.com	http://altervista.org
Atlanta	Georgia	31165	15 Katie Center	14	Williams	Ann	1-(404)178-4789	awilliamsko@ifeng.com	http://upenn.edu
Seminole	Florida	34642	673 Everett Place	9371	James	George	1-(941)302-7562	gjameskp@ucoz.com	https://1und1.de
Dallas	Texas	75392	28511 Melody Alley	92686	Ruiz	Michael	1-(214)435-9177	mruizkq@loc.gov	https://1und1.de
Amarillo	Texas	79105	6 Dovetail Crossing	8844	Garcia	Antonio	1-(806)775-6563	agarciakr@photobucket.com	http://tmall.com
North Hollywood	California	91606	2 Roth Way	19	Scott	Teresa	1-(818)794-2130	tscottks@weebly.com	https://netvibes.com
Buffalo	New York	14263	74824 Hayes Junction	835	Thomas	Nicholas	1-(716)358-9734	nthomaskt@jalbum.net	https://furl.net
San Jose	California	95123	939 Cascade Circle	01586	Murphy	Harold	1-(408)138-5526	hmurphyku@scientificamerican.com	https://slashdot.org
Paterson	New Jersey	07505	0738 Packers Junction	75746	Boyd	Phyllis	1-(973)615-9008	pboydkv@altervista.org	https://discuz.net
Boston	Massachusetts	02109	28681 Manitowish Terrace	650	Mccoy	Jacqueline	1-(617)773-5000	jmccoykw@buzzfeed.com	http://vk.com
Corpus Christi	Texas	78415	3 Sunnyside Place	299	Perry	Jessica	1-(361)493-9052	jperrykx@ebay.co.uk	http://sina.com.cn
Charlotte	North Carolina	28235	7 Becker Way	018	Lane	Scott	1-(704)566-8851	slaneky@mozilla.com	https://csmonitor.com
Atlanta	Georgia	30368	7 Bunker Hill Road	049	Moore	Tammy	1-(404)408-4405	tmoorekz@ebay.co.uk	http://reddit.com
Saint Paul	Minnesota	55188	4 Lyons Lane	0	Campbell	Ralph	1-(651)574-8322	rcampbelll0@etsy.com	https://nature.com
Spring	Texas	77386	213 Alpine Center	653	Rose	Heather	1-(713)805-9887	hrosel1@amazonaws.com	https://baidu.com
Birmingham	Alabama	35205	28 Del Mar Avenue	983	Butler	Ruby	1-(205)497-4984	rbutlerl2@unesco.org	https://elegantthemes.com
Jacksonville	Florida	32244	65893 Schurz Center	5019	Williams	Craig	1-(904)543-0539	cwilliamsl3@slideshare.net	http://unicef.org
Englewood	Colorado	80150	93 Garrison Circle	6	Hawkins	Evelyn	1-(303)965-2758	ehawkinsl4@businessweek.com	http://kickstarter.com
Chicago	Illinois	60686	231 Carberry Circle	4	Allen	Lisa	1-(312)791-1002	lallenl5@simplemachines.org	https://bravesites.com
Cincinnati	Ohio	45203	9532 Manitowish Place	4	Perkins	Todd	1-(513)588-8741	tperkinsl6@economist.com	http://stumbleupon.com
Los Angeles	California	90081	88185 Daystar Plaza	2	Brown	Adam	1-(213)353-6300	abrownl7@miibeian.gov.cn	http://marketwatch.com
Chattanooga	Tennessee	37450	8 Crownhardt Point	3	Kim	Harry	1-(423)185-4055	hkiml8@cocolog-nifty.com	https://geocities.jp
Tulsa	Oklahoma	74133	1579 Union Avenue	349	Ross	Philip	1-(918)251-6792	prossl9@sfgate.com	https://aboutads.info
New York City	New York	10150	70804 Shasta Alley	75922	Sanders	Earl	1-(212)284-9653	esandersla@desdev.cn	https://mac.com
Washington	District of Columbia	20508	3220 Emmet Parkway	95810	Perry	Richard	1-(202)388-3296	rperrylb@feedburner.com	http://mapquest.com
Pinellas Park	Florida	34665	54516 Northwestern Terrace	2396	Elliott	Harry	1-(850)579-0890	helliottlc@tiny.cc	http://myspace.com
Tulsa	Oklahoma	74126	24 Kennedy Circle	16	Burns	Elizabeth	1-(918)442-4427	eburnsld@sfgate.com	https://bloglines.com
Atlanta	Georgia	30323	33175 Gina Center	8705	Gardner	Virginia	1-(678)202-9317	vgardnerle@businessinsider.com	http://jiathis.com
Springfield	Virginia	22156	45 Sugar Junction	85166	Wilson	Billy	1-(571)508-9891	bwilsonlf@adobe.com	https://redcross.org
Wichita Falls	Texas	76310	9327 Rigney Pass	5	Little	Sean	1-(940)934-2461	slittlelg@amazon.co.jp	https://issuu.com
Los Angeles	California	90071	5739 6th Hill	6980	Coleman	Douglas	1-(310)300-4643	dcolemanlh@multiply.com	https://tinypic.com
Louisville	Kentucky	40205	3 Declaration Place	5	Jenkins	Donald	1-(502)420-7863	djenkinsli@feedburner.com	http://constantcontact.com
Memphis	Tennessee	38150	61373 Scofield Circle	8	Day	Adam	1-(901)229-1261	adaylj@amazon.de	http://cmu.edu
Jacksonville	Florida	32220	25542 Acker Parkway	18805	Knight	Carlos	1-(904)199-2073	cknightlk@ask.com	https://goodreads.com
Riverside	California	92505	0650 Coolidge Park	1	Hall	Todd	1-(909)863-4311	thallll@nih.gov	https://businessweek.com
Saint Paul	Minnesota	55103	96542 Hoffman Lane	49	Stone	Chris	1-(612)933-3332	cstonelm@lycos.com	https://free.fr
Appleton	Wisconsin	54915	80 Leroy Street	44	Thompson	Jimmy	1-(920)567-2947	jthompsonln@businesswire.com	https://mediafire.com
Spring	Texas	77386	3 Ludington Road	94262	Fisher	Alice	1-(281)284-3075	afisherlo@nymag.com	http://360.cn
Asheville	North Carolina	28805	21 Gerald Circle	4776	Robinson	Patrick	1-(828)877-2127	probinsonlp@google.ru	http://ed.gov
Detroit	Michigan	48242	94050 Fair Oaks Parkway	1	Meyer	Jeremy	1-(734)542-5022	jmeyerlq@nih.gov	https://weibo.com
Fort Wayne	Indiana	46814	1283 Elka Hill	2668	Morgan	Jesse	1-(260)102-6245	jmorganlr@yolasite.com	https://mail.ru
Phoenix	Arizona	85025	4 Warbler Road	1	Howell	Frank	1-(480)339-9081	fhowellls@google.co.jp	http://qq.com
Birmingham	Alabama	35242	5198 Sutteridge Terrace	23314	Hart	Bonnie	1-(205)727-6463	bhartlt@wikimedia.org	https://friendfeed.com
Columbia	Missouri	65211	1 Schiller Lane	5566	Brooks	Rose	1-(573)973-4535	rbrookslu@intel.com	http://wiley.com
Washington	District of Columbia	20525	76 Farwell Court	919	Morgan	Eric	1-(202)452-4831	emorganlv@naver.com	http://163.com
Albuquerque	New Mexico	87140	154 Express Street	33999	Lee	Sarah	1-(505)999-4482	sleelw@sitemeter.com	http://w3.org
Seattle	Washington	98195	13 Riverside Court	4150	Price	Frank	1-(206)436-8662	fpricelx@exblog.jp	https://yellowpages.com
Spring	Texas	77386	370 Pawling Way	2	Rice	Lillian	1-(281)392-0631	lricely@i2i.jp	http://chronoengine.com
San Francisco	California	94154	6 8th Drive	25254	Mcdonald	Joan	1-(415)288-7915	jmcdonaldlz@wordpress.com	https://odnoklassniki.ru
New York City	New York	10110	3 Park Meadow Road	343	Little	Jesse	1-(212)957-9699	jlittlem0@360.cn	http://com.com
Englewood	Colorado	80150	75490 Summit Center	3	Kennedy	Diane	1-(303)908-5854	dkennedym1@shop-pro.jp	https://apache.org
Louisville	Kentucky	40293	213 Elmside Hill	6	Walker	Albert	1-(502)588-9684	awalkerm2@prweb.com	http://multiply.com
San Diego	California	92165	298 Thierer Crossing	7063	Franklin	Steven	1-(619)427-7081	sfranklinm3@fc2.com	https://zdnet.com
Atlanta	Georgia	31136	78346 Schmedeman Drive	727	Turner	Robert	1-(404)517-2336	rturnerm4@discovery.com	https://macromedia.com
Los Angeles	California	90045	3121 Fulton Court	068	Moore	Randy	1-(310)353-3346	rmoorem5@gravatar.com	https://mediafire.com
Wichita	Kansas	67230	784 Golf Place	170	Day	Anthony	1-(316)387-4885	adaym6@nationalgeographic.com	http://mysql.com
Jackson	Mississippi	39282	6 Hintze Street	363	Brown	Judy	1-(601)586-2159	jbrownm7@house.gov	https://illinois.edu
Loretto	Minnesota	55598	470 Colorado Center	6645	Walker	Ruby	1-(763)390-6129	rwalkerm8@bloomberg.com	http://seattletimes.com
Morgantown	West Virginia	26505	65 La Follette Avenue	1	Anderson	Joyce	1-(304)977-8154	jandersonm9@dot.gov	http://theglobeandmail.com
Harrisburg	Pennsylvania	17105	0144 Troy Drive	886	Kim	Irene	1-(717)272-3114	ikimma@nps.gov	http://stanford.edu
Chicago	Illinois	60657	2 Crowley Place	15	Sanchez	Justin	1-(312)468-2172	jsanchezmb@smugmug.com	http://google.it
Albuquerque	New Mexico	87180	273 Ramsey Parkway	31951	Reed	Brian	1-(505)633-6396	breedmc@comsenz.com	https://spiegel.de
Fresno	California	93721	7156 Derek Parkway	3968	Shaw	Nicholas	1-(559)979-5637	nshawmd@slideshare.net	http://diigo.com
Brooklyn	New York	11236	486 Superior Lane	1474	Brooks	Johnny	1-(917)809-1950	jbrooksme@flavors.me	http://twitter.com
Hollywood	Florida	33028	07 Golf Course Hill	7	Watson	Ronald	1-(305)832-0521	rwatsonmf@eventbrite.com	http://printfriendly.com
Trenton	New Jersey	08695	03 Old Shore Point	0	Moore	Craig	1-(609)882-1731	cmooremg@google.com	http://rakuten.co.jp
Dearborn	Michigan	48126	1384 Sachtjen Lane	2739	Freeman	Juan	1-(734)448-7528	jfreemanmh@gmpg.org	http://seattletimes.com
Riverside	California	92505	6072 Sundown Circle	751	Davis	Joseph	1-(909)615-8204	jdavismi@creativecommons.org	https://engadget.com
Washington	District of Columbia	20525	2 Artisan Court	31	Hunter	Jose	1-(202)570-2656	jhuntermj@so-net.ne.jp	http://geocities.com
Pasadena	California	91131	42936 Prentice Hill	84	Lewis	Gregory	1-(626)787-0924	glewismk@free.fr	https://foxnews.com
Saint Petersburg	Florida	33715	1878 Hayes Center	341	Lawrence	Cynthia	1-(727)765-6240	clawrenceml@ezinearticles.com	https://squarespace.com
Hialeah	Florida	33018	12 Ramsey Road	550	Wood	Mary	1-(786)555-6415	mwoodmm@squarespace.com	http://bing.com
Harrisburg	Pennsylvania	17121	61 Ronald Regan Parkway	664	Nguyen	James	1-(717)120-4395	jnguyenmn@prnewswire.com	https://globo.com
Tacoma	Washington	98424	830 Weeping Birch Pass	3	Payne	Anthony	1-(253)775-1007	apaynemo@craigslist.org	http://meetup.com
Tacoma	Washington	98464	0283 Memorial Pass	159	Cunningham	Joe	1-(253)179-4015	jcunninghammp@yahoo.co.jp	https://opera.com
Detroit	Michigan	48242	0 6th Alley	46153	Lawrence	Fred	1-(734)537-9894	flawrencemq@shinystat.com	http://netvibes.com
Cincinnati	Ohio	45208	24925 Forest Junction	99200	Jones	Debra	1-(513)788-4827	djonesmr@nature.com	https://ycombinator.com
Mobile	Alabama	36622	7688 Pankratz Point	2	Garza	Chris	1-(251)473-0984	cgarzams@xrea.com	https://microsoft.com
Ocala	Florida	34474	2 Duke Court	4	Meyer	David	1-(352)801-5106	dmeyermt@altervista.org	https://seesaa.net
Lexington	Kentucky	40586	0 Jana Place	3791	Jordan	George	1-(859)587-1014	gjordanmu@istockphoto.com	http://hostgator.com
Seattle	Washington	98121	29 Karstens Way	12	Payne	Marilyn	1-(360)427-7977	mpaynemv@drupal.org	http://nps.gov
Bowie	Maryland	20719	566 Sugar Junction	638	Gordon	Edward	1-(240)980-4656	egordonmw@google.com	http://behance.net
Minneapolis	Minnesota	55446	42 Lukken Place	69	Foster	Steven	1-(612)405-9697	sfostermx@google.ru	http://deliciousdays.com
Kansas City	Missouri	64199	9 Parkside Way	04015	Brown	Kevin	1-(816)356-0914	kbrownmy@tripod.com	https://prlog.org
Cincinnati	Ohio	45238	18922 Grasskamp Crossing	55048	Thompson	Peter	1-(513)967-1331	pthompsonmz@ftc.gov	http://ycombinator.com
Battle Creek	Michigan	49018	329 Anzinger Terrace	0120	Johnston	Arthur	1-(269)235-0957	ajohnstonn0@google.nl	http://ycombinator.com
Appleton	Wisconsin	54915	19112 Fisk Way	7506	Montgomery	Mark	1-(920)698-6789	mmontgomeryn1@kickstarter.com	https://biblegateway.com
Toledo	Ohio	43666	93 Little Fleur Junction	30866	Cruz	Jeffrey	1-(419)444-6538	jcruzn2@shop-pro.jp	https://aboutads.info
Washington	District of Columbia	20036	500 Myrtle Junction	39932	Carpenter	Ernest	1-(202)768-5552	ecarpentern3@cocolog-nifty.com	https://smugmug.com
Phoenix	Arizona	85053	5949 Arkansas Terrace	9464	Henderson	Anne	1-(602)111-0577	ahendersonn4@marriott.com	http://wp.com
Milwaukee	Wisconsin	53215	72950 Crownhardt Court	3	Bell	Diane	1-(414)786-2999	dbelln5@webeden.co.uk	https://yolasite.com
Kent	Washington	98042	76037 Paget Street	80	Torres	Irene	1-(360)652-5412	itorresn6@sakura.ne.jp	https://opensource.org
Topeka	Kansas	66617	23949 Iowa Alley	44315	Jones	Adam	1-(785)463-8071	ajonesn7@un.org	http://rakuten.co.jp
Fort Worth	Texas	76129	0 Anthes Way	3144	Williamson	Arthur	1-(817)847-8526	awilliamsonn8@cbslocal.com	https://360.cn
San Diego	California	92115	1509 Dovetail Junction	493	Bishop	Justin	1-(619)653-3867	jbishopn9@pinterest.com	http://facebook.com
El Paso	Texas	79984	6 Florence Center	0	Thompson	David	1-(915)410-8606	dthompsonna@goo.ne.jp	http://smh.com.au
Las Vegas	Nevada	89125	98 Ilene Center	7453	Porter	Martha	1-(702)397-1385	mporternb@yale.edu	http://is.gd
Spokane	Washington	99220	63 Lukken Way	39554	Greene	Joe	1-(509)543-8216	jgreenenc@drupal.org	https://ameblo.jp
San Jose	California	95173	2 Norway Maple Crossing	0	Flores	Kenneth	1-(408)815-6015	kfloresnd@wordpress.org	https://multiply.com
Dallas	Texas	75353	96 Lien Place	28672	Gardner	Steven	1-(214)218-7086	sgardnerne@forbes.com	https://wufoo.com
Houston	Texas	77005	45 Milwaukee Point	7260	Patterson	Stephanie	1-(832)483-8444	spattersonnf@spiegel.de	https://domainmarket.com
Salem	Oregon	97306	27164 Scofield Junction	35689	Lopez	Albert	1-(503)786-5104	alopezng@mozilla.com	https://nature.com
Norwalk	Connecticut	06859	19 Autumn Leaf Point	04	Gardner	Andrea	1-(203)703-2604	agardnernh@google.fr	http://usda.gov
Columbus	Georgia	31998	890 Grayhawk Pass	6657	Ray	Lois	1-(706)784-9916	lrayni@wisc.edu	https://github.io
New Orleans	Louisiana	70129	1 Hallows Trail	21	Reed	Justin	1-(504)460-3903	jreednj@typepad.com	https://mashable.com
Tucson	Arizona	85737	5 Clove Road	365	Morgan	Kevin	1-(520)997-0278	kmorgannk@oakley.com	https://w3.org
Young America	Minnesota	55557	85 Jackson Hill	6514	Jacobs	Ryan	1-(952)177-9985	rjacobsnl@goo.ne.jp	http://netlog.com
Washington	District of Columbia	20430	1800 High Crossing Junction	203	Jacobs	Carl	1-(202)539-2191	cjacobsnm@stanford.edu	http://cornell.edu
Huntsville	Alabama	35815	59 Arapahoe Street	305	Jordan	George	1-(256)894-3291	gjordannn@answers.com	http://senate.gov
El Paso	Texas	88530	836 Iowa Crossing	7	Morris	Adam	1-(915)701-7591	amorrisno@npr.org	https://360.cn
San Mateo	California	94405	81798 Dakota Trail	51352	Wells	Antonio	1-(805)374-0231	awellsnp@cbslocal.com	http://ovh.net
Laredo	Texas	78044	4 Monterey Road	490	Tucker	Margaret	1-(956)738-6569	mtuckernq@booking.com	https://imageshack.us
Knoxville	Tennessee	37914	95 Laurel Alley	9715	Lawrence	Ashley	1-(865)126-1182	alawrencenr@paginegialle.it	https://tripod.com
Port Washington	New York	11054	67 Hoffman Terrace	13	Robinson	Antonio	1-(516)878-9915	arobinsonns@google.co.jp	http://cpanel.net
Tampa	Florida	33605	740 Eastwood Court	79	Olson	Kathy	1-(813)371-8564	kolsonnt@flickr.com	https://360.cn
South Bend	Indiana	46620	6 Coleman Center	78	Owens	Mark	1-(574)303-8151	mowensnu@netvibes.com	http://washington.edu
Columbia	Missouri	65211	82 Banding Alley	968	Ward	Robin	1-(573)928-3897	rwardnv@cpanel.net	https://statcounter.com
Los Angeles	California	90010	703 Talisman Street	29135	Hughes	Kathleen	1-(949)479-3601	khughesnw@icq.com	https://shutterfly.com
Young America	Minnesota	55557	358 Badeau Pass	98	Russell	Joshua	1-(952)153-5585	jrussellnx@qq.com	https://census.gov
Houston	Texas	77293	5077 Chive Road	21	Olson	Walter	1-(281)485-6490	wolsonny@blogs.com	http://samsung.com
Naples	Florida	34108	3 Ridgeview Place	05370	Kelly	Larry	1-(941)934-1528	lkellynz@about.com	http://squarespace.com
El Paso	Texas	79905	73865 Northland Point	12	Barnes	Nancy	1-(915)839-0372	nbarneso0@squidoo.com	http://foxnews.com
Nashville	Tennessee	37210	57287 Anthes Parkway	2817	Cox	Marie	1-(615)137-6695	mcoxo1@wikimedia.org	http://umn.edu
Bakersfield	California	93305	50 Laurel Trail	33	Sanders	Theresa	1-(661)253-7445	tsanderso2@alibaba.com	https://ted.com
Sacramento	California	94245	316 Warbler Pass	40	Stevens	Christine	1-(916)265-2448	cstevenso3@mapy.cz	http://nba.com
Richmond	Virginia	23220	820 Transport Circle	12513	Gonzalez	Todd	1-(804)773-8542	tgonzalezo4@etsy.com	https://ibm.com
Louisville	Kentucky	40250	6 Atwood Drive	39677	Rice	Joshua	1-(502)881-3952	jriceo5@nymag.com	https://seesaa.net
Raleigh	North Carolina	27658	338 Clyde Gallagher Road	45018	Spencer	Theresa	1-(919)684-4253	tspencero6@webeden.co.uk	https://oracle.com
Peoria	Arizona	85383	13 Grover Pass	4763	Reynolds	Patrick	1-(602)881-7162	preynoldso7@altervista.org	http://cornell.edu
Los Angeles	California	90045	50 3rd Pass	0	Sims	Bruce	1-(650)607-4224	bsimso8@google.com.hk	https://ted.com
Midland	Michigan	48670	909 Corry Junction	08	Black	Brandon	1-(989)648-3287	bblacko9@samsung.com	http://bravesites.com
Philadelphia	Pennsylvania	19151	90672 Ridgeway Plaza	36	Morgan	Randy	1-(215)271-1668	rmorganoa@t.co	https://ebay.com
Fort Worth	Texas	76105	818 Marquette Place	690	Olson	Donna	1-(682)560-6552	dolsonob@ucsd.edu	http://seesaa.net
Anderson	Indiana	46015	7503 Scofield Trail	5337	Kelly	Laura	1-(765)495-9412	lkellyoc@pcworld.com	https://senate.gov
Minneapolis	Minnesota	55412	02429 Lighthouse Bay Court	47698	Lewis	Rose	1-(952)616-7188	rlewisod@bbc.co.uk	http://ibm.com
Atlanta	Georgia	30311	36 Eagle Crest Parkway	8495	Hunt	Juan	1-(770)652-3082	jhuntoe@discuz.net	https://dmoz.org
Jamaica	New York	11431	396 Brickson Park Road	50001	Washington	Theresa	1-(212)432-1213	twashingtonof@auda.org.au	https://slashdot.org
Homestead	Florida	33034	956 American Ash Pass	7664	Moore	Carl	1-(786)820-2385	cmooreog@liveinternet.ru	https://springer.com
Washington	District of Columbia	20503	11165 Sullivan Lane	720	Anderson	Alan	1-(202)698-1417	aandersonoh@opensource.org	https://shop-pro.jp
Albany	New York	12222	96 Del Mar Point	468	Williams	Jimmy	1-(518)221-6485	jwilliamsoi@yelp.com	https://go.com
Jacksonville	Florida	32259	254 Waubesa Crossing	90361	Rodriguez	Wayne	1-(904)447-1840	wrodriguezoj@intel.com	http://example.com
Utica	New York	13505	06 Sheridan Center	5	Rice	Fred	1-(315)780-5631	friceok@sun.com	https://fda.gov
El Paso	Texas	88514	28720 Barnett Drive	5	Lopez	David	1-(915)271-6619	dlopezol@hc360.com	http://auda.org.au
Toledo	Ohio	43699	0013 Hermina Road	0	Scott	Walter	1-(419)376-4883	wscottom@a8.net	https://blinklist.com
Albany	Georgia	31704	2096 Mcbride Park	197	Gardner	Samuel	1-(229)874-5906	sgardneron@twitpic.com	https://google.ru
Bridgeport	Connecticut	06673	76 Merry Street	2076	Edwards	Chris	1-(203)700-4438	cedwardsoo@printfriendly.com	https://exblog.jp
Miami	Florida	33142	14790 Homewood Way	2726	Nelson	Ashley	1-(305)501-5417	anelsonop@princeton.edu	http://theguardian.com
Honolulu	Hawaii	96845	67666 Reinke Center	1	Ryan	Aaron	1-(808)528-0162	aryanoq@ameblo.jp	http://jigsy.com
Corpus Christi	Texas	78475	6 Dorton Terrace	186	Hunt	Betty	1-(361)665-2275	bhuntor@fc2.com	https://google.cn
Charleston	West Virginia	25331	557 Fordem Pass	76532	Nelson	Martin	1-(304)294-5092	mnelsonos@ftc.gov	http://omniture.com
Albany	New York	12237	481 Starling Parkway	11304	Butler	Susan	1-(518)117-9817	sbutlerot@nytimes.com	https://illinois.edu
Gainesville	Florida	32610	5183 Truax Center	9510	Murray	Andrew	1-(352)597-1794	amurrayou@foxnews.com	https://usatoday.com
Nashville	Tennessee	37240	768 Spaight Crossing	4	Mason	Eugene	1-(615)973-1237	emasonov@moonfruit.com	http://ox.ac.uk
Rochester	New York	14652	5 Jenifer Court	27	Mendoza	Benjamin	1-(585)517-6509	bmendozaow@booking.com	https://unblog.fr
El Paso	Texas	88525	98 8th Park	57	Warren	Laura	1-(915)148-3665	lwarrenox@sfgate.com	http://cpanel.net
Newark	Delaware	19725	8 Onsgard Plaza	59	Bell	Gregory	1-(302)251-4184	gbelloy@e-recht24.de	http://sphinn.com
Lafayette	Louisiana	70593	0566 Claremont Drive	43	Adams	Keith	1-(337)467-6771	kadamsoz@mapy.cz	http://intel.com
Bakersfield	California	93305	976 Northwestern Parkway	18347	Rose	Harold	1-(661)801-4692	hrosep0@nbcnews.com	https://redcross.org
Mountain View	California	94042	56 Lakeland Drive	39127	Holmes	Kathleen	1-(650)623-8476	kholmesp1@netscape.com	http://dyndns.org
Albany	New York	12205	5 Veith Trail	6564	Ray	John	1-(518)292-5576	jrayp2@columbia.edu	http://sphinn.com
Nashville	Tennessee	37240	5 Arrowood Way	526	Simpson	James	1-(615)590-9330	jsimpsonp3@wisc.edu	http://fastcompany.com
Salt Lake City	Utah	84130	032 Kingsford Parkway	5070	Morrison	Bruce	1-(801)106-5683	bmorrisonp4@ftc.gov	https://ibm.com
Denver	Colorado	80255	1 Lakeland Crossing	358	Stephens	Jason	1-(303)536-4777	jstephensp5@elpais.com	https://jalbum.net
Houston	Texas	77065	4724 Glacier Hill Lane	29	Riley	Victor	1-(713)241-0905	vrileyp6@trellian.com	http://usgs.gov
Milwaukee	Wisconsin	53225	40 Tennyson Place	736	Mason	Bonnie	1-(414)776-7856	bmasonp7@nasa.gov	http://blogger.com
Nashville	Tennessee	37210	6 Northwestern Place	5	Washington	Nicholas	1-(615)774-5665	nwashingtonp8@g.co	http://amazonaws.com
Hicksville	New York	11854	3 Manufacturers Terrace	8	Crawford	Tina	1-(516)921-3273	tcrawfordp9@tumblr.com	http://nifty.com
Dayton	Ohio	45470	246 Vidon Junction	366	Day	Patrick	1-(937)891-1458	pdaypa@woothemes.com	http://skyrock.com
Richmond	Virginia	23260	8000 Anzinger Center	6497	Chapman	Richard	1-(804)653-6390	rchapmanpb@timesonline.co.uk	http://census.gov
Raleigh	North Carolina	27621	95 Gateway Trail	249	George	Doris	1-(919)106-8764	dgeorgepc@webs.com	https://sciencedaily.com
Boston	Massachusetts	02283	75424 Jenifer Avenue	389	Stewart	Albert	1-(781)855-7062	astewartpd@moonfruit.com	https://chicagotribune.com
Indianapolis	Indiana	46278	7 Hoffman Trail	14	Duncan	Janet	1-(317)416-4846	jduncanpe@uol.com.br	https://imdb.com
Miami	Florida	33142	497 Aberg Pass	1	Foster	Rachel	1-(305)942-4594	rfosterpf@bandcamp.com	http://loc.gov
Denver	Colorado	80223	05 Delladonna Terrace	7378	Stone	Lori	1-(720)433-7397	lstonepg@google.com.hk	https://1und1.de
Detroit	Michigan	48275	5 Porter Parkway	55188	Ortiz	Stephen	1-(313)214-5578	sortizph@twitter.com	http://marriott.com
Dallas	Texas	75241	1 Almo Center	00215	Johnston	Johnny	1-(972)722-1926	jjohnstonpi@addthis.com	http://meetup.com
Grand Junction	Colorado	81505	008 Lotheville Alley	798	Diaz	Christine	1-(970)688-8620	cdiazpj@mail.ru	https://canalblog.com
Buffalo	New York	14269	47853 Logan Terrace	9784	Hill	Joe	1-(716)430-1012	jhillpk@google.ru	https://mozilla.org
Sacramento	California	95838	58477 Elka Alley	64191	Harvey	Fred	1-(916)258-8980	fharveypl@domainmarket.com	http://chronoengine.com
El Paso	Texas	88546	9577 Dapin Center	77969	Wheeler	Tammy	1-(915)973-7605	twheelerpm@yelp.com	https://blogs.com
Racine	Wisconsin	53405	2 Arkansas Court	80024	Sanders	Stephen	1-(262)712-8449	ssanderspn@scientificamerican.com	https://etsy.com
San Jose	California	95150	4 Scoville Avenue	759	Bennett	Edward	1-(408)245-9739	ebennettpo@hhs.gov	http://latimes.com
Atlanta	Georgia	30328	2268 Clemons Avenue	25	Meyer	Ralph	1-(404)398-4558	rmeyerpp@va.gov	http://sourceforge.net
Fullerton	California	92835	28 Stone Corner Park	223	Richardson	Jane	1-(714)882-1741	jrichardsonpq@infoseek.co.jp	https://foxnews.com
Gaithersburg	Maryland	20883	30 La Follette Lane	34	Greene	Douglas	1-(240)973-2762	dgreenepr@loc.gov	http://ed.gov
New York City	New York	10131	37 Oak Valley Lane	31	Cruz	Roy	1-(212)177-5500	rcruzps@amazon.co.jp	http://wikimedia.org
Olympia	Washington	98506	2894 Parkside Parkway	07	Burke	Gary	1-(360)780-6573	gburkept@ning.com	https://admin.ch
Cleveland	Ohio	44111	26 Gale Plaza	67877	Wright	Alice	1-(216)422-8005	awrightpu@prlog.org	http://purevolume.com
Jersey City	New Jersey	07310	13 Dakota Street	42259	Harper	Willie	1-(551)645-4577	wharperpv@meetup.com	https://bing.com
Hattiesburg	Mississippi	39404	34505 Hanover Place	651	Oliver	Louise	1-(601)696-1030	loliverpw@slashdot.org	https://indiatimes.com
Boston	Massachusetts	02114	52965 Glacier Hill Trail	998	Burke	Julia	1-(857)190-9376	jburkepx@behance.net	https://biglobe.ne.jp
Orange	California	92668	9 Park Meadow Parkway	32407	Reyes	Debra	1-(760)489-4884	dreyespy@xrea.com	https://altervista.org
Chicago	Illinois	60604	5 Blackbird Court	9108	Hansen	Tina	1-(312)447-3515	thansenpz@blogs.com	http://last.fm
Brooklyn	New York	11254	65093 Browning Lane	4797	Castillo	Carolyn	1-(212)254-2100	ccastilloq0@freewebs.com	https://reddit.com
Washington	District of Columbia	20005	8 Fisk Road	09	Riley	Sandra	1-(202)388-6479	srileyq1@cocolog-nifty.com	http://chron.com
Wilmington	Delaware	19897	02048 Oak Way	53	Richards	Joyce	1-(302)541-4065	jrichardsq2@123-reg.co.uk	http://diigo.com
Colorado Springs	Colorado	80945	54525 Boyd Park	90	Walker	Jonathan	1-(719)277-0384	jwalkerq3@cpanel.net	https://google.com.hk
Roanoke	Virginia	24040	0714 Eliot Trail	32149	Mccoy	Scott	1-(540)677-9800	smccoyq4@cargocollective.com	https://bing.com
Las Vegas	Nevada	89166	12 Russell Pass	19301	Gonzalez	Catherine	1-(702)733-4635	cgonzalezq5@nymag.com	http://moonfruit.com
Boise	Idaho	83722	01653 Center Junction	42186	Cruz	Martin	1-(208)670-7943	mcruzq6@chronoengine.com	https://cam.ac.uk
Colorado Springs	Colorado	80915	304 Commercial Parkway	2	Bailey	Jeffrey	1-(719)864-4708	jbaileyq7@smugmug.com	https://slideshare.net
Aiken	South Carolina	29805	72 Spohn Avenue	2927	Rice	Lois	1-(803)631-4696	lriceq8@goo.ne.jp	http://biglobe.ne.jp
Sioux City	Iowa	51105	2504 Bluestem Lane	93887	Hill	Betty	1-(712)572-0963	bhillq9@odnoklassniki.ru	http://patch.com
Nashville	Tennessee	37220	646 John Wall Court	11	Myers	Timothy	1-(615)292-5314	tmyersqa@gnu.org	http://spiegel.de
Aurora	Colorado	80015	52261 Lerdahl Plaza	11	Austin	Ruth	1-(720)395-1839	raustinqb@statcounter.com	http://parallels.com
Washington	District of Columbia	20370	0 Banding Circle	329	Boyd	Paul	1-(202)811-4285	pboydqc@washington.edu	https://omniture.com
Boise	Idaho	83705	38 Dottie Street	6147	Henderson	Martin	1-(208)675-8673	mhendersonqd@mayoclinic.com	http://auda.org.au
Louisville	Kentucky	40280	70 Loftsgordon Drive	9	Palmer	Nicholas	1-(502)486-3049	npalmerqe@mac.com	https://symantec.com
Boston	Massachusetts	02114	73603 Namekagon Alley	2159	Carroll	Philip	1-(857)562-0873	pcarrollqf@theatlantic.com	http://hugedomains.com
Phoenix	Arizona	85020	24 Springview Court	58167	Harrison	Juan	1-(480)359-4031	jharrisonqg@disqus.com	https://usgs.gov
New York City	New York	10024	61723 Roxbury Hill	93	Smith	Eric	1-(718)219-9676	esmithqh@craigslist.org	https://comcast.net
Santa Barbara	California	93150	50393 Mandrake Alley	2	Walker	Antonio	1-(805)601-9077	awalkerqi@51.la	https://netlog.com
Las Vegas	Nevada	89115	001 Springview Plaza	97425	Mitchell	Antonio	1-(702)718-9026	amitchellqj@typepad.com	http://japanpost.jp
Saint Louis	Missouri	63104	54 Calypso Alley	3621	Riley	Kenneth	1-(314)880-1799	krileyqk@umn.edu	https://simplemachines.org
Nashville	Tennessee	37240	5 Ludington Terrace	19041	Mills	Amy	1-(615)844-8467	amillsql@free.fr	http://dot.gov
Arlington	Texas	76004	76894 Norway Maple Street	70	Hawkins	Alan	1-(817)439-2922	ahawkinsqm@storify.com	http://over-blog.com
Riverside	California	92519	438 Parkside Hill	57198	Wheeler	Ruth	1-(951)152-8667	rwheelerqn@uiuc.edu	http://a8.net
Detroit	Michigan	48206	50390 Ronald Regan Hill	794	Carpenter	Carolyn	1-(313)687-5833	ccarpenterqo@bbc.co.uk	http://tuttocitta.it
Bethlehem	Pennsylvania	18018	624 Kropf Trail	5	Wagner	Louise	1-(267)771-8468	lwagnerqp@reuters.com	https://amazon.co.jp
Honolulu	Hawaii	96850	84892 Alpine Pass	001	Chavez	Beverly	1-(808)520-3598	bchavezqq@github.com	https://diigo.com
Charlotte	North Carolina	28210	5677 Warner Terrace	1052	Harrison	Stephen	1-(704)767-4611	sharrisonqr@auda.org.au	http://google.fr
Rochester	New York	14609	7210 Tomscot Hill	7780	Matthews	Sarah	1-(585)707-0071	smatthewsqs@gov.uk	http://salon.com
Dallas	Texas	75216	83 Arapahoe Hill	6702	Elliott	Roy	1-(214)919-7327	relliottqt@wiley.com	http://uol.com.br
Schenectady	New York	12325	88605 Carberry Road	3806	Clark	Daniel	1-(518)951-0943	dclarkqu@redcross.org	https://ucoz.com
Jackson	Mississippi	39282	4 Scoville Terrace	830	Collins	Carolyn	1-(601)137-3318	ccollinsqv@ox.ac.uk	https://prlog.org
Austin	Texas	78778	22 Morning Lane	13	Hayes	Dorothy	1-(512)536-1668	dhayesqw@google.com.hk	http://home.pl
Spring	Texas	77388	580 Bunting Alley	15	Harris	Kathy	1-(832)602-1717	kharrisqx@bing.com	http://sourceforge.net
Nashville	Tennessee	37235	2 Thackeray Crossing	533	Nguyen	Martha	1-(615)190-0145	mnguyenqy@google.ca	https://utexas.edu
San Bernardino	California	92410	2976 Jana Parkway	11937	Mills	Adam	1-(909)333-1428	amillsqz@i2i.jp	http://huffingtonpost.com
Dallas	Texas	75342	78 Elgar Road	8	Chavez	Terry	1-(214)783-9294	tchavezr0@npr.org	https://desdev.cn
College Station	Texas	77844	5503 Alpine Terrace	07352	Crawford	Phyllis	1-(979)830-0572	pcrawfordr1@prlog.org	https://a8.net
San Bernardino	California	92410	748 Utah Lane	1	Bennett	Sarah	1-(951)858-0901	sbennettr2@ftc.gov	https://springer.com
New York City	New York	10249	64600 Lakeland Place	3461	Meyer	Johnny	1-(212)633-2346	jmeyerr3@cafepress.com	https://sina.com.cn
Lexington	Kentucky	40524	42203 Kennedy Plaza	27	Boyd	Clarence	1-(859)403-6321	cboydr4@hhs.gov	https://sfgate.com
Charleston	West Virginia	25389	2025 Trailsway Circle	946	Taylor	Andrea	1-(304)579-9444	ataylorr5@photobucket.com	http://163.com
Pasadena	California	91199	463 Harbort Parkway	6303	Long	Joshua	1-(626)387-4481	jlongr6@stanford.edu	http://rakuten.co.jp
Harrisburg	Pennsylvania	17121	144 Gateway Lane	58	Hill	Eugene	1-(717)878-3166	ehillr7@businessweek.com	https://discuz.net
Louisville	Kentucky	40266	785 Mosinee Plaza	8500	Murray	Diane	1-(502)575-0994	dmurrayr8@sohu.com	https://myspace.com
Irving	Texas	75037	28744 Hanson Drive	0	Williamson	Wayne	1-(214)826-8648	wwilliamsonr9@gravatar.com	http://buzzfeed.com
Boise	Idaho	83705	74788 Service Place	09	Austin	Sean	1-(208)486-2033	saustinra@amazon.de	https://auda.org.au
Houston	Texas	77266	0107 Warbler Point	300	Riley	Mary	1-(832)731-2446	mrileyrb@theglobeandmail.com	https://army.mil
Irving	Texas	75037	05 7th Terrace	140	Nichols	Marilyn	1-(214)130-2651	mnicholsrc@friendfeed.com	https://phoca.cz
Boise	Idaho	83727	1571 Green Center	01	Castillo	Julie	1-(208)439-6938	jcastillord@e-recht24.de	http://parallels.com
Oakland	California	94622	1336 Warbler Hill	35072	Gutierrez	James	1-(510)742-3334	jgutierrezre@studiopress.com	https://live.com
Monticello	Minnesota	55565	6435 Roth Park	49866	Hawkins	Sharon	1-(763)179-6166	shawkinsrf@oracle.com	https://sakura.ne.jp
Tucson	Arizona	85743	5 Park Meadow Park	466	Rice	Jane	1-(520)781-7677	jricerg@seesaa.net	http://ca.gov
Miami	Florida	33147	62 Amoth Terrace	649	Gibson	Brenda	1-(305)361-5245	bgibsonrh@dropbox.com	https://liveinternet.ru
Salt Lake City	Utah	84199	591 Union Trail	0	Bryant	Lori	1-(801)266-3842	lbryantri@slashdot.org	http://hatena.ne.jp
Knoxville	Tennessee	37931	086 Delaware Alley	04051	Cole	Joseph	1-(865)738-9571	jcolerj@netscape.com	http://loc.gov
Houston	Texas	77010	76024 Bunting Drive	2	Ward	Justin	1-(832)199-7021	jwardrk@time.com	https://cnn.com
Grand Junction	Colorado	81505	91019 Corscot Place	56	Larson	Kathleen	1-(970)719-7621	klarsonrl@ask.com	https://digg.com
Austin	Texas	78778	461 Shelley Trail	489	Owens	Phyllis	1-(512)545-0749	powensrm@mozilla.org	https://shareasale.com
El Paso	Texas	88574	78475 Merry Crossing	71540	Harvey	Harold	1-(915)678-6020	hharveyrn@upenn.edu	http://nbcnews.com
Newark	New Jersey	07104	02726 Fallview Trail	7382	Carr	Ryan	1-(973)283-7816	rcarrro@linkedin.com	http://amazonaws.com
Lincoln	Nebraska	68524	95 Mallard Hill	80	Kelley	Roger	1-(402)984-0526	rkelleyrp@arizona.edu	http://sogou.com
Atlanta	Georgia	30358	1413 Chinook Park	1371	Kim	Jason	1-(404)676-6981	jkimrq@elpais.com	http://blinklist.com
Sacramento	California	94291	3233 Knutson Drive	01646	Peterson	Rachel	1-(916)299-8958	rpetersonrr@blogtalkradio.com	http://trellian.com
